"STATION","DATE","LATITUDE","LONGITUDE","ELEVATION","NAME","REPORT_TYPE","SOURCE","HourlyAltimeterSetting","HourlyDewPointTemperature","HourlyDryBulbTemperature","HourlyPrecipitation","HourlyPresentWeatherType","HourlyPressureChange","HourlyPressureTendency","HourlyRelativeHumidity","HourlySkyConditions","HourlySeaLevelPressure","HourlyStationPressure","HourlyVisibility","HourlyWetBulbTemperature","HourlyWindDirection","HourlyWindGustSpeed","HourlyWindSpeed","Sunrise","Sunset","DailyAverageDewPointTemperature","DailyAverageDryBulbTemperature","DailyAverageRelativeHumidity","DailyAverageSeaLevelPressure","DailyAverageStationPressure","DailyAverageWetBulbTemperature","DailyAverageWindSpeed","DailyCoolingDegreeDays","DailyDepartureFromNormalAverageTemperature","DailyHeatingDegreeDays","DailyMaximumDryBulbTemperature","DailyMinimumDryBulbTemperature","DailyPeakWindDirection","DailyPeakWindSpeed","DailyPrecipitation","DailySnowDepth","DailySnowfall","DailySustainedWindDirection","DailySustainedWindSpeed","DailyWeather","MonthlyAverageRH","MonthlyDaysWithGT001Precip","MonthlyDaysWithGT010Precip","MonthlyDaysWithGT32Temp","MonthlyDaysWithGT90Temp","MonthlyDaysWithLT0Temp","MonthlyDaysWithLT32Temp","MonthlyDepartureFromNormalAverageTemperature","MonthlyDepartureFromNormalCoolingDegreeDays","MonthlyDepartureFromNormalHeatingDegreeDays","MonthlyDepartureFromNormalMaximumTemperature","MonthlyDepartureFromNormalMinimumTemperature","MonthlyDepartureFromNormalPrecipitation","MonthlyDewpointTemperature","MonthlyGreatestPrecip","MonthlyGreatestPrecipDate","MonthlyGreatestSnowDepth","MonthlyGreatestSnowDepthDate","MonthlyGreatestSnowfall","MonthlyGreatestSnowfallDate","MonthlyMaxSeaLevelPressureValue","MonthlyMaxSeaLevelPressureValueDate","MonthlyMaxSeaLevelPressureValueTime","MonthlyMaximumTemperature","MonthlyMeanTemperature","MonthlyMinSeaLevelPressureValue","MonthlyMinSeaLevelPressureValueDate","MonthlyMinSeaLevelPressureValueTime","MonthlyMinimumTemperature","MonthlySeaLevelPressure","MonthlyStationPressure","MonthlyTotalLiquidPrecipitation","MonthlyTotalSnowfall","MonthlyWetBulb","AWND","CDSD","CLDD","DSNW","HDSD","HTDD","DYTS","DYHF","NormalsCoolingDegreeDay","NormalsHeatingDegreeDay","ShortDurationEndDate005","ShortDurationEndDate010","ShortDurationEndDate015","ShortDurationEndDate020","ShortDurationEndDate030","ShortDurationEndDate045","ShortDurationEndDate060","ShortDurationEndDate080","ShortDurationEndDate100","ShortDurationEndDate120","ShortDurationEndDate150","ShortDurationEndDate180","ShortDurationPrecipitationValue005","ShortDurationPrecipitationValue010","ShortDurationPrecipitationValue015","ShortDurationPrecipitationValue020","ShortDurationPrecipitationValue030","ShortDurationPrecipitationValue045","ShortDurationPrecipitationValue060","ShortDurationPrecipitationValue080","ShortDurationPrecipitationValue100","ShortDurationPrecipitationValue120","ShortDurationPrecipitationValue150","ShortDurationPrecipitationValue180","REM","BackupDirection","BackupDistance","BackupDistanceUnit","BackupElements","BackupElevation","BackupEquipment","BackupLatitude","BackupLongitude","BackupName","WindEquipmentChangeDate"
"67205099999","2005-03-16T14:00:00","-11.361789","40.354875","27.12","MOCIMBOA DA PRAIA, MZ","FM-12","4","","75","90","","","","9","60","","29.82","","18.64","","150","","11","","","","","","","","","","","","","","","","","","","","","","","","","","","","","","","","","","","","","","","","","","","","","","","","","","","","","","","","","","","","","","","","","","","","","","","","","","","","","","","","","","","","","","","","","","","SYN076AAXX  16123 67205 31580 41510 10325 20237 40099 70191 84900 333 58000 94394;","","","","","","","","","",""
"67205099999","2005-03-17T08:00:00","-11.361789","40.354875","27.12","MOCIMBOA DA PRAIA, MZ","FM-12","4","","77","84","","","","9","79","","29.90","","18.64","","170","","8","","","","","","","","","","","","","","","","","","","","","","","","","","","","","","","","","","","","","","","","","","","","","","","","","","","","","","","","","","","","","","","","","","","","","","","","","","","","","","","","","","","","","","","","","","","SYN098AAXX  17063 67205 32580 21707 10289 20248 40124 82200 333 20246 50530 55117 59005 94320 555 10000;","","","","","","","","","",""
"67205099999","2005-03-18T14:00:00","-11.361789","40.354875","27.12","MOCIMBOA DA PRAIA, MZ","FM-12","4","","77","91","","||TS","","9","62","","29.84","","18.64","","140","","9","","","","","","","","","","","","","","","","","","","","","","","","","","","","","","","","","","","","","","","","","","","","","","","","","","","","","","","","","","","","","","","","","","","","","","","","","","","","","","","","","","","","","","","","","","","SYN076AAXX  18123 67205 31580 61408 10330 20249 40104 71792 84933 333 58001 94394;","","","","","","","","","",""
"67205099999","2005-03-19T08:00:00","-11.361789","40.354875","27.12","MOCIMBOA DA PRAIA, MZ","FM-12","4","","78","82","","","","9","85","","29.90","","18.64","","000","","0","","","","","","","","","","","","","","","","","","","","","","","","","","","","","","","","","","","","","","","","","","","","","","","","","","","","","","","","","","","","","","","","","","","","","","","","","","","","","","","","","","","","","","","","","","","SYN110AAXX  19063 67205 12580 30000 10280 20253 40124 60184 82201 333 20245 50600 55092 59005 94320 555 00178 10000;","","","","","","","","","",""
"67205099999","2005-03-19T14:00:00","-11.361789","40.354875","27.12","MOCIMBOA DA PRAIA, MZ","FM-12","4","","76","80","","","","9","87","","29.82","","18.64","","000","","0","","","","","","","","","","","","","","","","","","","","","","","","","","","","","","","","","","","","","","","","","","","","","","","","","","","","","","","","","","","","","","","","","","","","","","","","","","","","","","","","","","","","","","","","","","","SYN076AAXX  19123 67205 12580 70000 10268 20245 40099 60021 879// 333 59005 94390;","","","","","","","","","",""
"67205099999","2005-03-21T08:00:00","-11.361789","40.354875","27.12","MOCIMBOA DA PRAIA, MZ","FM-12","4","","78","81","","","","9","90","","29.85","","18.64","","140","","8","","","","","","","","","","","","","","","","","","","","","","","","","","","","","","","","","","","","","","","","","","","","","","","","","","","","","","","","","","","","","","","","","","","","","","","","","","","","","","","","","","","","","","","","","","","SYN110AAXX  21063 67205 32580 41407 10271 20254 40110 60074 84900 333 20242 50240 55096 59009 94394 555 00070 10051;","","","","","","","","","",""
"67205099999","2005-03-21T14:00:00","-11.361789","40.354875","27.12","MOCIMBOA DA PRAIA, MZ","FM-12","4","","76","89","","","","9","65","","29.78","","18.64","","020","","6","","","","","","","","","","","","","","","","","","","","","","","","","","","","","","","","","","","","","","","","","","","","","","","","","","","","","","","","","","","","","","","","","","","","","","","","","","","","","","","","","","","","","","","","","","","SYN082AAXX  21123 67205 11580 60205 10315 20242 40084 60021 72196 84903 333 59005 94393;","","","","","","","","","",""
"67205099999","2005-03-22T08:00:00","-11.361789","40.354875","27.12","MOCIMBOA DA PRAIA, MZ","FM-12","4","","77","82","","","","9","86","","29.87","","18.64","","170","","9","","","","","","","","","","","","","","","","","","","","","","","","","","","","","","","","","","","","","","","","","","","","","","","","","","","","","","","","","","","","","","","","","","","","","","","","","","","","","","","","","","","","","","","","","","","SYN110AAXX  22063 67205 12580 61708 10278 20252 40116 60024 84930 333 20245 50420 55080 58006 94394 555 00025 10070;","","","","","","","","","",""
"67205099999","2005-03-23T08:00:00","-11.361789","40.354875","27.12","MOCIMBOA DA PRAIA, MZ","FM-12","4","","75","81","","","","9","82","","29.85","","18.64","","160","","14","","","","","","","","","","","","","","","","","","","","","","","","","","","","","","","","","","","","","","","","","","","","","","","","","","","","","","","","","","","","","","","","","","","","","","","","","","","","","","","","","","","","","","","","","","","SYN104AAXX  23063 67205 12580 61612 10275 20241 40110 69944 83230 333 20250 50490 55104 59006 94324 555 10025;","","","","","","","","","",""
"67205099999","2005-03-23T14:00:00","-11.361789","40.354875","27.12","MOCIMBOA DA PRAIA, MZ","FM-12","4","","77","91","","","","9","65","","29.76","","18.64","","080","","7","","","","","","","","","","","","","","","","","","","","","","","","","","","","","","","","","","","","","","","","","","","","","","","","","","","","","","","","","","","","","","","","","","","","","","","","","","","","","","","","","","","","","","","","","","","SYN070AAXX  23123 67205 32580 60806 10326 20251 40077 84230 333 59012 94322;","","","","","","","","","",""
"67205099999","2005-03-25T14:00:00","-11.361789","40.354875","27.12","MOCIMBOA DA PRAIA, MZ","FM-12","4","","81","86","","||TS","","9","85","","29.73","","18.64","","070","","6","","","","","","","","","","","","","","","","","","","","","","","","","","","","","","","","","","","","","","","","","","","","","","","","","","","","","","","","","","","","","","","","","","","","","","","","","","","","","","","","","","","","","","","","","","","SYN082AAXX  25123 67205 11580 70705 10300 20272 40069 69961 71711 879// 333 59009 94390;","","","","","","","","","",""
"67205099999","2005-03-26T08:00:00","-11.361789","40.354875","27.12","MOCIMBOA DA PRAIA, MZ","FM-12","4","","77","84","","","","9","79","","29.83","","18.64","","270","","3","","","","","","","","","","","","","","","","","","","","","","","","","","","","","","","","","","","","","","","","","","","","","","","","","","","","","","","","","","","","","","","","","","","","","","","","","","","","","","","","","","","","","","","","","","","SYN110AAXX  26063 67205 12580 62703 10290 20250 40103 60064 84933 333 20252 50400 55065 58004 94390 555 00062 10027;","","","","","","","","","",""
"67205099999","2005-03-26T14:00:00","-11.361789","40.354875","27.12","MOCIMBOA DA PRAIA, MZ","FM-12","4","","81","93","","","","9","69","","29.73","","18.64","","020","","8","","","","","","","","","","","","","","","","","","","","","","","","","","","","","","","","","","","","","","","","","","","","","","","","","","","","","","","","","","","","","","","","","","","","","","","","","","","","","","","","","","","","","","","","","","","SYN070AAXX  26123 67205 32580 70207 10338 20274 40067 84906 333 58002 94398;","","","","","","","","","",""
"67205099999","2005-03-27T08:00:00","-11.361789","40.354875","27.12","MOCIMBOA DA PRAIA, MZ","FM-12","4","","78","81","","","","9","92","","29.86","","18.64","","000","","0","","","","","","","","","","","","","","","","","","","","","","","","","","","","","","","","","","","","","","","","","","","","","","","","","","","","","","","","","","","","","","","","","","","","","","","","","","","","","","","","","","","","","","","","","","","SYN104AAXX  27063 67205 12580 70000 10270 20256 40113 69954 84906 333 20260 50340 55088 58010 94390 555 10062;","","","","","","","","","",""
"67205099999","2005-03-27T14:00:00","-11.361789","40.354875","27.12","MOCIMBOA DA PRAIA, MZ","FM-12","4","","70","92","","","","9","49","","29.82","","18.64","","020","","3","","","","","","","","","","","","","","","","","","","","","","","","","","","","","","","","","","","","","","","","","","","","","","","","","","","","","","","","","","","","","","","","","","","","","","","","","","","","","","","","","","","","","","","","","","","SYN070AAXX  27123 67205 32580 60203 10333 20212 40099 83906 333 58032 94390;","","","","","","","","","",""
"67205099999","2005-03-29T08:00:00","-11.361789","40.354875","27.12","MOCIMBOA DA PRAIA, MZ","FM-12","4","","81","85","","","","9","88","","29.87","","18.64","","000","","0","","","","","","","","","","","","","","","","","","","","","","","","","","","","","","","","","","","","","","","","","","","","","","","","","","","","","","","","","","","","","","","","","","","","","","","","","","","","","","","","","","","","","","","","","","","SYN110AAXX  29063 67205 12580 40000 10295 20274 40116 60074 82903 333 20240 50460 55089 59002 94390 555 00067 10000;","","","","","","","","","",""
"67205099999","2005-03-29T14:00:00","-11.361789","40.354875","27.12","MOCIMBOA DA PRAIA, MZ","FM-12","4","","80","89","","","","9","76","","29.82","","18.64","","040","","6","","","","","","","","","","","","","","","","","","","","","","","","","","","","","","","","","","","","","","","","","","","","","","","","","","","","","","","","","","","","","","","","","","","","","","","","","","","","","","","","","","","","","","","","","","","SYN070AAXX  29123 67205 31580 70405 10315 20267 40099 84906 333 58019 94390;","","","","","","","","","",""
"67205099999","2005-03-30T08:00:00","-11.361789","40.354875","27.12","MOCIMBOA DA PRAIA, MZ","FM-12","4","","73","78","","","","9","86","","29.94","","18.64","","350","","5","","","","","","","","","","","","","","","","","","","","","","","","","","","","","","","","","","","","","","","","","","","","","","","","","","","","","","","","","","","","","","","","","","","","","","","","","","","","","","","","","","","","","","","","","","","SYN104AAXX  30063 67205 31580 73504 10255 20230 40139 7299/ 879// 333 20244 50360 55060 58023 94390 555 10067;","","","","","","","","","",""
"67205099999","2005-04-01T08:00:00","-11.361789","40.354875","27.12","MOCIMBOA DA PRAIA, MZ","FM-12","4","","79","85","","","","9","82","","29.93","","18.64","","000","","0","","","","","","","","","","","","","","","","","","","","","","","","","","","","","","","","","","","","","","","","","","","","","","","","","","","","","","","","","","","","","","","","","","","","","","","","","","","","","","","","","","","","","","","","","","","SYN092AAXX  01063 67205 32580 30000 10295 20261 40134 83200 333 20236 50260 55107 59008 555 10000;","","","","","","","","","",""
"67205099999","2005-04-01T14:00:00","-11.361789","40.354875","27.12","MOCIMBOA DA PRAIA, MZ","FM-12","4","","70","91","","","","9","51","","29.84","","18.64","","090","","8","","","","","","","","","","","","","","","","","","","","","","","","","","","","","","","","","","","","","","","","","","","","","","","","","","","","","","","","","","","","","","","","","","","","","","","","","","","","","","","","","","","","","","","","","","","SYN064AAXX  01123 67205 32580 70907 10327 20213 40104 82904 333 59021;","","","","","","","","","",""
"67205099999","2005-04-02T08:00:00","-11.361789","40.354875","27.12","MOCIMBOA DA PRAIA, MZ","FM-12","4","","77","83","","","","9","82","","29.91","","18.64","","010","","3","","","","","","","","","","","","","","","","","","","","","","","","","","","","","","","","","","","","","","","","","","","","","","","","","","","","","","","","","","","","","","","","","","","","","","","","","","","","","","","","","","","","","","","","","","","SYN092AAXX  02063 67205 32580 20103 10285 20251 40129 82200 333 20245 50330 55099 59005 555 10000;","","","","","","","","","",""
"67205099999","2005-04-02T14:00:00","-11.361789","40.354875","27.12","MOCIMBOA DA PRAIA, MZ","FM-12","4","","77","92","","","","9","61","","29.84","","18.64","","090","","8","","","","","","","","","","","","","","","","","","","","","","","","","","","","","","","","","","","","","","","","","","","","","","","","","","","","","","","","","","","","","","","","","","","","","","","","","","","","","","","","","","","","","","","","","","","SYN064AAXX  02123 67205 32580 30907 10335 20251 40104 83201 333 59000;","","","","","","","","","",""
"67205099999","2005-04-03T05:00:00","-11.361789","40.354875","27.12","MOCIMBOA DA PRAIA, MZ","FM-12","4","","75","76","","","","9","96","","29.91","","18.64","","000","","0","","","","","","","","","","","","","","","","","","","","","","","","","","","","","","","","","","","","","","","","","","","","","","","","","","","","","","","","","","","","","","","","","","","","","","","","","","","","","","","","","","","","","","","","","","","SYN064AAXX  03033 67205 42580 20000 10245 20238 40129 82300 333 58001;","","","","","","","","","",""
"67205099999","2005-04-04T05:00:00","-11.361789","40.354875","27.12","MOCIMBOA DA PRAIA, MZ","FM-12","4","","75","76","","","","9","95","","29.91","","18.64","","000","","0","","","","","","","","","","","","","","","","","","","","","","","","","","","","","","","","","","","","","","","","","","","","","","","","","","","","","","","","","","","","","","","","","","","","","","","","","","","","","","","","","","","","","","","","","","","SYN064AAXX  04033 67205 42580 50000 10247 20238 40128 83930 333 59001;","","","","","","","","","",""
"67205099999","2005-04-04T14:00:00","-11.361789","40.354875","27.12","MOCIMBOA DA PRAIA, MZ","FM-12","4","","77","91","","","","9","63","","29.87","","18.64","","130","","16","","","","","","","","","","","","","","","","","","","","","","","","","","","","","","","","","","","","","","","","","","","","","","","","","","","","","","","","","","","","","","","","","","","","","","","","","","","","","","","","","","","","","","","","","","","SYN064AAXX  04123 67205 32580 41314 10329 20249 40114 82201 333 59000;","","","","","","","","","",""
"67205099999","2005-04-05T05:00:00","-11.361789","40.354875","27.12","MOCIMBOA DA PRAIA, MZ","FM-12","4","","75","76","","","","9","95","","29.91","","18.64","","160","","3","","","","","","","","","","","","","","","","","","","","","","","","","","","","","","","","","","","","","","","","","","","","","","","","","","","","","","","","","","","","","","","","","","","","","","","","","","","","","","","","","","","","","","","","","","","SYN064AAXX  05033 67205 42580 21603 10245 20237 40129 82300 333 58001;","","","","","","","","","",""
"67205099999","2005-04-05T08:00:00","-11.361789","40.354875","27.12","MOCIMBOA DA PRAIA, MZ","FM-12","4","","72","83","","","","9","70","","29.94","","18.64","","170","","16","","","","","","","","","","","","","","","","","","","","","","","","","","","","","","","","","","","","","","","","","","","","","","","","","","","","","","","","","","","","","","","","","","","","","","","","","","","","","","","","","","","","","","","","","","","SYN092AAXX  05063 67205 32580 31714 10285 20224 40140 81101 333 20245 50450 55110 58003 555 10057;","","","","","","","","","",""
"67205099999","2005-04-06T05:00:00","-11.361789","40.354875","27.12","MOCIMBOA DA PRAIA, MZ","FM-12","4","","73","74","","","","9","96","","29.88","","18.64","","000","","0","","","","","","","","","","","","","","","","","","","","","","","","","","","","","","","","","","","","","","","","","","","","","","","","","","","","","","","","","","","","","","","","","","","","","","","","","","","","","","","","","","","","","","","","","","","SYN064AAXX  06033 67205 42580 40000 10235 20228 40119 84200 333 59010;","","","","","","","","","",""
"67205099999","2005-04-07T05:00:00","-11.361789","40.354875","27.12","MOCIMBOA DA PRAIA, MZ","FM-12","4","","71","73","","","","9","92","","29.88","","18.64","","000","","0","","","","","","","","","","","","","","","","","","","","","","","","","","","","","","","","","","","","","","","","","","","","","","","","","","","","","","","","","","","","","","","","","","","","","","","","","","","","","","","","","","","","","","","","","","","SYN064AAXX  07033 67205 42980 40000 10228 20214 40118 80001 333 59001;","","","","","","","","","",""
"67205099999","2005-04-07T14:00:00","-11.361789","40.354875","27.12","MOCIMBOA DA PRAIA, MZ","FM-12","4","","72","90","","","","9","56","","29.87","","18.64","","140","","16","","","","","","","","","","","","","","","","","","","","","","","","","","","","","","","","","","","","","","","","","","","","","","","","","","","","","","","","","","","","","","","","","","","","","","","","","","","","","","","","","","","","","","","","","","","SYN064AAXX  07123 67205 32580 51414 10320 20223 40116 84201 333 58005;","","","","","","","","","",""
"67205099999","2005-04-08T05:00:00","-11.361789","40.354875","27.12","MOCIMBOA DA PRAIA, MZ","FM-12","4","","73","75","","","","9","92","","29.84","","18.64","","000","","0","","","","","","","","","","","","","","","","","","","","","","","","","","","","","","","","","","","","","","","","","","","","","","","","","","","","","","","","","","","","","","","","","","","","","","","","","","","","","","","","","","","","","","","","","","","SYN064AAXX  08033 67205 42580 40000 10240 20226 40105 82201 333 58007;","","","","","","","","","",""
"67205099999","2005-04-08T14:00:00","-11.361789","40.354875","27.12","MOCIMBOA DA PRAIA, MZ","FM-12","4","","72","91","","","","9","52","","29.86","","18.64","","090","","16","","","","","","","","","","","","","","","","","","","","","","","","","","","","","","","","","","","","","","","","","","","","","","","","","","","","","","","","","","","","","","","","","","","","","","","","","","","","","","","","","","","","","","","","","","","SYN064AAXX  08123 67205 32580 20914 10330 20220 40111 82100 333 59005;","","","","","","","","","",""
"67205099999","2005-04-10T08:00:00","-11.361789","40.354875","27.12","MOCIMBOA DA PRAIA, MZ","FM-12","4","","68","79","","","","9","69","CLR:00","29.93","","18.64","","170","","17","","","","","","","","","","","","","","","","","","","","","","","","","","","","","","","","","","","","","","","","","","","","","","","","","","","","","","","","","","","","","","","","","","","","","","","","","","","","","","","","","","","","","","","","","","","SYN086AAXX  10063 67205 32980 01715 10261 20200 40134 333 20220 50500 55108 59006 555 10000;","","","","","","","","","",""
"67205099999","2005-04-11T14:00:00","-11.361789","40.354875","27.12","MOCIMBOA DA PRAIA, MZ","FM-12","4","","72","90","","","","9","56","","29.84","","18.64","","130","","15","","","","","","","","","","","","","","","","","","","","","","","","","","","","","","","","","","","","","","","","","","","","","","","","","","","","","","","","","","","","","","","","","","","","","","","","","","","","","","","","","","","","","","","","","","","SYN064AAXX  11123 67205 32580 51313 10320 20223 40104 83230 333 59005;","","","","","","","","","",""
"67205099999","2005-04-13T08:00:00","-11.361789","40.354875","27.12","MOCIMBOA DA PRAIA, MZ","FM-12","4","","76","78","","","","9","94","","29.94","","18.64","","000","","0","","","","","","","","","","","","","","","","","","","","","","","","","","","","","","","","","","","","","","","","","","","","","","","","","","","","","","","","","","","","","","","","","","","","","","","","","","","","","","","","","","","","","","","","","","","SYN092AAXX  13063 67205 32580 50000 10256 20246 40138 85900 333 20246 50430 55018 58008 555 10000;","","","","","","","","","",""
"67205099999","2005-04-13T14:00:00","-11.361789","40.354875","27.12","MOCIMBOA DA PRAIA, MZ","FM-12","4","","80","83","","||TS","","9","89","","29.94","","18.64","","000","","0","","","","","","","","","","","","","","","","","","","","","","","","","","","","","","","","","","","","","","","","","","","","","","","","","","","","","","","","","","","","","","","","","","","","","","","","","","","","","","","","","","","","","","","","","","","SYN076AAXX  13123 67205 11580 60000 10285 20265 40139 60181 71700 86900 333 58020;","","","","","","","","","",""
"67205099999","2005-05-27T05:00:00","-11.361789","40.354875","27.12","MOCIMBOA DA PRAIA, MZ","FM-12","4","","67","71","","","","9","88","","29.98","","18.64","","200","","5","","","","","","","","","","","","","","","","","","","","","","","","","","","","","","","","","","","","","","","","","","","","","","","","","","","","","","","","","","","","","","","","","","","","","","","","","","","","","","","","","","","","","","","","","","","SYN064AAXX  27033 67205 42580 32004 10215 20195 40154 82230 333 58000;","","","","","","","","","",""
"67205099999","2005-05-28T05:00:00","-11.361789","40.354875","27.12","MOCIMBOA DA PRAIA, MZ","FM-12","4","","67","70","","","","9","92","CLR:00","29.96","","18.64","","210","","5","","","","","","","","","","","","","","","","","","","","","","","","","","","","","","","","","","","","","","","","","","","","","","","","","","","","","","","","","","","","","","","","","","","","","","","","","","","","","","","","","","","","","","","","","","","SYN058AAXX  28033 67205 42980 02104 10210 20196 40147 333 59007;","","","","","","","","","",""
"67205099999","2005-05-31T08:00:00","-11.361789","40.354875","27.12","MOCIMBOA DA PRAIA, MZ","FM-12","4","","","","","","","9","","","30.06","","18.64","","180","","3","","","","","","","","","","","","","","","","","","","","","","","","","","","","","","","","","","","","","","","","","","","","","","","","","","","","","","","","","","","","","","","","","","","","","","","","","","","","","","","","","","","","","","","","","","","SYN092AAXX  31063 67205 32580 11803 10/// 20237 40180 81200 333 20223 50730 55101 58011 555 10000;","","","","","","","","","",""
"67205099999","2005-06-06T14:00:00","-11.361789","40.354875","27.12","MOCIMBOA DA PRAIA, MZ","FM-12","4","","71","86","","","","9","61","","29.95","","18.64","","100","","16","","","","","","","","","","","","","","","","","","","","","","","","","","","","","","","","","","","","","","","","","","","","","","","","","","","","","","","","","","","","","","","","","","","","","","","","","","","","","","","","","","","","","","","","","","","SYN064AAXX  06123 67205 32580 31014 10298 20216 40142 83200 333 58009;","","","","","","","","","",""
"67205099999","2005-06-07T08:00:00","-11.361789","40.354875","27.12","MOCIMBOA DA PRAIA, MZ","FM-12","4","","72","78","","","","9","82","","29.95","","18.64","","130","","10","","","","","","","","","","","","","","","","","","","","","","","","","","","","","","","","","","","","","","","","","","","","","","","","","","","","","","","","","","","","","","","","","","","","","","","","","","","","","","","","","","","","","","","","","","","SYN092AAXX  07063 67205 32580 11309 10254 20220 40141 81200 333 20205 50460 55098 58002 555 10000;","","","","","","","","","",""
"67205099999","2005-06-08T14:00:00","-11.361789","40.354875","27.12","MOCIMBOA DA PRAIA, MZ","FM-12","4","","68","86","","","","9","54","","30.05","","18.64","","100","","16","","","","","","","","","","","","","","","","","","","","","","","","","","","","","","","","","","","","","","","","","","","","","","","","","","","","","","","","","","","","","","","","","","","","","","","","","","","","","","","","","","","","","","","","","","","SYN064AAXX  08123 67205 32580 21014 10300 20198 40177 82200 333 58023;","","","","","","","","","",""
"67205099999","2005-06-09T14:00:00","-11.361789","40.354875","27.12","MOCIMBOA DA PRAIA, MZ","FM-12","4","","71","86","","","","9","60","","29.96","","18.64","","120","","17","","","","","","","","","","","","","","","","","","","","","","","","","","","","","","","","","","","","","","","","","","","","","","","","","","","","","","","","","","","","","","","","","","","","","","","","","","","","","","","","","","","","","","","","","","","SYN064AAXX  09123 67205 32580 21215 10300 20214 40145 82200 333 59008;","","","","","","","","","",""
"67205099999","2005-06-10T08:00:00","-11.361789","40.354875","27.12","MOCIMBOA DA PRAIA, MZ","FM-12","4","","74","81","","","","9","78","","30.03","","18.64","","170","","5","","","","","","","","","","","","","","","","","","","","","","","","","","","","","","","","","","","","","","","","","","","","","","","","","","","","","","","","","","","","","","","","","","","","","","","","","","","","","","","","","","","","","","","","","","","SYN092AAXX  10063 67205 32580 11704 10275 20234 40169 81100 333 20216 50490 55101 59009 555 10000;","","","","","","","","","",""
"67205099999","2005-06-11T14:00:00","-11.361789","40.354875","27.12","MOCIMBOA DA PRAIA, MZ","FM-12","4","","62","86","","","","9","44","","29.94","","18.64","","130","","16","","","","","","","","","","","","","","","","","","","","","","","","","","","","","","","","","","","","","","","","","","","","","","","","","","","","","","","","","","","","","","","","","","","","","","","","","","","","","","","","","","","","","","","","","","","SYN064AAXX  11123 67205 32580 21314 10300 20165 40140 82200 333 58016;","","","","","","","","","",""
"67205099999","2005-06-12T08:00:00","-11.361789","40.354875","27.12","MOCIMBOA DA PRAIA, MZ","FM-12","4","","65","75","","","","9","71","","30.09","","18.64","","180","","17","","","","","","","","","","","","","","","","","","","","","","","","","","","","","","","","","","","","","","","","","","","","","","","","","","","","","","","","","","","","","","","","","","","","","","","","","","","","","","","","","","","","","","","","","","","SYN092AAXX  12063 67205 32580 11815 10238 20182 40188 81200 333 20079 50410 55087 59005 555 10000;","","","","","","","","","",""
"67205099999","2005-06-14T08:00:00","-11.361789","40.354875","27.12","MOCIMBOA DA PRAIA, MZ","FM-12","4","","71","79","","","","9","77","","30.06","","18.64","","160","","8","","","","","","","","","","","","","","","","","","","","","","","","","","","","","","","","","","","","","","","","","","","","","","","","","","","","","","","","","","","","","","","","","","","","","","","","","","","","","","","","","","","","","","","","","","","SYN092AAXX  14063 67205 32580 31607 10260 20217 40180 82230 333 20208 50600 55000 58001 555 10000;","","","","","","","","","",""
"67205099999","2005-06-15T08:00:00","-11.361789","40.354875","27.12","MOCIMBOA DA PRAIA, MZ","FM-12","4","","74","78","","","","9","87","","30.09","","18.64","","000","","0","","","","","","","","","","","","","","","","","","","","","","","","","","","","","","","","","","","","","","","","","","","","","","","","","","","","","","","","","","","","","","","","","","","","","","","","","","","","","","","","","","","","","","","","","","","SYN092AAXX  15063 67205 32580 20000 10257 20234 40189 82200 333 20200 50220 55092 58009 555 10000;","","","","","","","","","",""
"67205099999","2005-06-16T08:00:00","-11.361789","40.354875","27.12","MOCIMBOA DA PRAIA, MZ","FM-12","4","","72","77","","","","9","84","","30.09","","18.64","","230","","7","","","","","","","","","","","","","","","","","","","","","","","","","","","","","","","","","","","","","","","","","","","","","","","","","","","","","","","","","","","","","","","","","","","","","","","","","","","","","","","","","","","","","","","","","","","SYN092AAXX  16063 67205 32580 12306 10251 20222 40190 81200 333 20202 50410 55097 58001 555 10000;","","","","","","","","","",""
"67205099999","2005-06-16T20:00:00","-11.361789","40.354875","27.12","MOCIMBOA DA PRAIA, MZ","FM-12","4","","72","74","","","","9","93","CLR:00","30.08","","18.64","","000","","0","","","","","","","","","","","","","","","","","","","","","","","","","","","","","","","","","","","","","","","","","","","","","","","","","","","","","","","","","","","","","","","","","","","","","","","","","","","","","","","","","","","","","","","","","","","SYN064AAXX  16183 67205 32980 00000 10236 20224 40187 333 10305 58002;","","","","","","","","","",""
"67205099999","2005-06-17T05:00:00","-11.361789","40.354875","27.12","MOCIMBOA DA PRAIA, MZ","FM-12","4","","69","71","","","","9","95","","30.06","","18.64","","000","","0","","","","","","","","","","","","","","","","","","","","","","","","","","","","","","","","","","","","","","","","","","","","","","","","","","","","","","","","","","","","","","","","","","","","","","","","","","","","","","","","","","","","","","","","","","","SYN064AAXX  17033 67205 42580 20000 10217 20208 40180 82200 333 58001;","","","","","","","","","",""
"67205099999","2005-06-17T08:00:00","-11.361789","40.354875","27.12","MOCIMBOA DA PRAIA, MZ","FM-12","4","","74","78","","","","9","87","","30.09","","18.64","","170","","11","","","","","","","","","","","","","","","","","","","","","","","","","","","","","","","","","","","","","","","","","","","","","","","","","","","","","","","","","","","","","","","","","","","","","","","","","","","","","","","","","","","","","","","","","","","SYN092AAXX  17063 67205 32580 21710 10255 20232 40189 82200 333 20211 50430 55101 59001 555 10000;","","","","","","","","","",""
"67205099999","2005-06-18T08:00:00","-11.361789","40.354875","27.12","MOCIMBOA DA PRAIA, MZ","FM-12","4","","51","77","","","","9","41","","30.12","","18.64","","170","","13","","","","","","","","","","","","","","","","","","","","","","","","","","","","","","","","","","","","","","","","","","","","","","","","","","","","","","","","","","","","","","","","","","","","","","","","","","","","","","","","","","","","","","","","","","","SYN092AAXX  18063 67205 32980 21711 10249 20108 40200 82030 333 20200 50360 55090 58011 555 10000;","","","","","","","","","",""
"67205099999","2005-06-18T14:00:00","-11.361789","40.354875","27.12","MOCIMBOA DA PRAIA, MZ","FM-12","4","","67","83","","","","9","57","","30.06","","18.64","","080","","11","","","","","","","","","","","","","","","","","","","","","","","","","","","","","","","","","","","","","","","","","","","","","","","","","","","","","","","","","","","","","","","","","","","","","","","","","","","","","","","","","","","","","","","","","","","SYN064AAXX  18123 67205 32580 30810 10285 20193 40178 82230 333 58004;","","","","","","","","","",""
"67205099999","2005-06-19T08:00:00","-11.361789","40.354875","27.12","MOCIMBOA DA PRAIA, MZ","FM-12","4","","69","78","","","","9","75","","30.10","","18.64","","180","","16","","","","","","","","","","","","","","","","","","","","","","","","","","","","","","","","","","","","","","","","","","","","","","","","","","","","","","","","","","","","","","","","","","","","","","","","","","","","","","","","","","","","","","","","","","","SYN092AAXX  19063 67205 32580 61814 10255 20207 40192 82250 333 20200 50470 55091 59008 555 10000;","","","","","","","","","",""
"67205099999","2005-06-20T05:00:00","-11.361789","40.354875","27.12","MOCIMBOA DA PRAIA, MZ","FM-12","4","","67","69","","","","9","95","","30.06","","18.64","","210","","5","","","","","","","","","","","","","","","","","","","","","","","","","","","","","","","","","","","","","","","","","","","","","","","","","","","","","","","","","","","","","","","","","","","","","","","","","","","","","","","","","","","","","","","","","","","SYN064AAXX  20033 67205 42580 22104 10204 20196 40178 82200 333 59004;","","","","","","","","","",""
"67205099999","2005-06-20T08:00:00","-11.361789","40.354875","27.12","MOCIMBOA DA PRAIA, MZ","FM-12","4","","69","81","","","","9","68","","30.08","","18.64","","200","","11","","","","","","","","","","","","","","","","","","","","","","","","","","","","","","","","","","","","","","","","","","","","","","","","","","","","","","","","","","","","","","","","","","","","","","","","","","","","","","","","","","","","","","","","","","","SYN092AAXX  20063 67205 32580 12010 10270 20207 40187 81200 333 20196 50750 55099 59007 555 10000;","","","","","","","","","",""
"67205099999","2005-06-23T08:00:00","-11.361789","40.354875","27.12","MOCIMBOA DA PRAIA, MZ","FM-12","4","","69","78","","","","9","75","","30.10","","18.64","","180","","16","","","","","","","","","","","","","","","","","","","","","","","","","","","","","","","","","","","","","","","","","","","","","","","","","","","","","","","","","","","","","","","","","","","","","","","","","","","","","","","","","","","","","","","","","","","SYN092AAXX  23063 67205 32580 61814 10255 20207 40192 82250 333 20200 50470 55091 59008 555 10000;","","","","","","","","","",""
"67205099999","2005-06-23T14:00:00","-11.361789","40.354875","27.12","MOCIMBOA DA PRAIA, MZ","FM-12","4","","65","85","","","","9","50","","30.09","","18.64","","170","","17","","","","","","","","","","","","","","","","","","","","","","","","","","","","","","","","","","","","","","","","","","","","","","","","","","","","","","","","","","","","","","","","","","","","","","","","","","","","","","","","","","","","","","","","","","","SYN064AAXX  23123 67205 32580 21715 10296 20182 40189 82200 333 58010;","","","","","","","","","",""
"67205099999","2005-06-24T08:00:00","-11.361789","40.354875","27.12","MOCIMBOA DA PRAIA, MZ","FM-12","4","","69","76","","","","9","79","","30.07","","18.64","","180","","8","","","","","","","","","","","","","","","","","","","","","","","","","","","","","","","","","","","","","","","","","","","","","","","","","","","","","","","","","","","","","","","","","","","","","","","","","","","","","","","","","","","","","","","","","","","SYN092AAXX  24063 67205 32580 41807 10245 20207 40183 82230 333 20204 50430 55103 59016 555 10000;","","","","","","","","","",""
"67205099999","2005-06-24T14:00:00","-11.361789","40.354875","27.12","MOCIMBOA DA PRAIA, MZ","FM-12","4","","68","70","","","","9","93","","30.03","","18.64","","150","","14","","","","","","","","","","","","","","","","","","","","","","","","","","","","","","","","","","","","","","","","","","","","","","","","","","","","","","","","","","","","","","","","","","","","","","","","","","","","","","","","","","","","","","","","","","","SYN064AAXX  24123 67205 32580 31512 10213 20202 40169 83200 333 59020;","","","","","","","","","",""
"67205099999","2005-06-25T05:00:00","-11.361789","40.354875","27.12","MOCIMBOA DA PRAIA, MZ","FM-12","4","","67","69","","","","9","93","","30.06","","18.64","","000","","0","","","","","","","","","","","","","","","","","","","","","","","","","","","","","","","","","","","","","","","","","","","","","","","","","","","","","","","","","","","","","","","","","","","","","","","","","","","","","","","","","","","","","","","","","","","SYN064AAXX  25033 67205 42580 30000 10208 20196 40178 83200 333 59002;","","","","","","","","","",""
"67205099999","2005-06-25T08:00:00","-11.361789","40.354875","27.12","MOCIMBOA DA PRAIA, MZ","FM-12","4","","70","77","","","","9","78","","30.09","","18.64","","160","","9","","","","","","","","","","","","","","","","","","","","","","","","","","","","","","","","","","","","","","","","","","","","","","","","","","","","","","","","","","","","","","","","","","","","","","","","","","","","","","","","","","","","","","","","","","","SYN092AAXX  25063 67205 32580 21608 10250 20209 40189 82200 333 20205 50530 55090 58006 555 10000;","","","","","","","","","",""
"67205099999","2005-06-26T08:00:00","-11.361789","40.354875","27.12","MOCIMBOA DA PRAIA, MZ","FM-12","4","","71","79","","","","9","77","","30.09","","18.64","","160","","8","","","","","","","","","","","","","","","","","","","","","","","","","","","","","","","","","","","","","","","","","","","","","","","","","","","","","","","","","","","","","","","","","","","","","","","","","","","","","","","","","","","","","","","","","","","SYN104AAXX  26063 67205 12580 51607 10260 20217 40191 60014 83230 333 20210 50400 55093 58002 555 00011 10000;","","","","","","","","","",""
"67205099999","2005-06-26T14:00:00","-11.361789","40.354875","27.12","MOCIMBOA DA PRAIA, MZ","FM-12","4","","68","85","","","","9","57","","30.06","","18.64","","090","","15","","","","","","","","","","","","","","","","","","","","","","","","","","","","","","","","","","","","","","","","","","","","","","","","","","","","","","","","","","","","","","","","","","","","","","","","","","","","","","","","","","","","","","","","","","","SYN064AAXX  26123 67205 32580 40913 10296 20201 40179 84200 333 58002;","","","","","","","","","",""
"67205099999","2005-06-28T08:00:00","-11.361789","40.354875","27.12","MOCIMBOA DA PRAIA, MZ","FM-12","4","","68","73","","","","9","83","","30.06","","18.64","","000","","0","","","","","","","","","","","","","","","","","","","","","","","","","","","","","","","","","","","","","","","","","","","","","","","","","","","","","","","","","","","","","","","","","","","","","","","","","","","","","","","","","","","","","","","","","","","SYN092AAXX  28063 67205 32580 80000 10230 20200 40179 8427/ 333 20209 50690 55090 59021 555 10000;","","","","","","","","","",""
"67205099999","2005-06-28T14:00:00","-11.361789","40.354875","27.12","MOCIMBOA DA PRAIA, MZ","FM-12","4","","75","81","","","","9","82","","30.03","","18.64","","110","","8","","","","","","","","","","","","","","","","","","","","","","","","","","","","","","","","","","","","","","","","","","","","","","","","","","","","","","","","","","","","","","","","","","","","","","","","","","","","","","","","","","","","","","","","","","","SYN070AAXX  28123 67205 12580 71107 10274 20241 40169 60011 8427/ 333 59008;","","","","","","","","","",""
"67205099999","2005-06-29T08:00:00","-11.361789","40.354875","27.12","MOCIMBOA DA PRAIA, MZ","FM-12","4","","67","75","","","","9","75","","30.09","","18.64","","210","","10","","","","","","","","","","","","","","","","","","","","","","","","","","","","","","","","","","","","","","","","","","","","","","","","","","","","","","","","","","","","","","","","","","","","","","","","","","","","","","","","","","","","","","","","","","","SYN104AAXX  29063 67205 12580 42109 10240 20193 40190 60054 82230 333 20212 50610 55011 58011 555 00049 10000;","","","","","","","","","",""
"67205099999","2005-06-29T14:00:00","-11.361789","40.354875","27.12","MOCIMBOA DA PRAIA, MZ","FM-12","4","","65","85","","","","9","51","","30.02","","18.64","","130","","16","","","","","","","","","","","","","","","","","","","","","","","","","","","","","","","","","","","","","","","","","","","","","","","","","","","","","","","","","","","","","","","","","","","","","","","","","","","","","","","","","","","","","","","","","","","SYN064AAXX  29123 67205 32580 71314 10295 20184 40167 83206 333 59002;","","","","","","","","","",""
"67205099999","2005-06-30T14:00:00","-11.361789","40.354875","27.12","MOCIMBOA DA PRAIA, MZ","FM-12","4","","61","71","","","","9","72","","30.06","","18.64","","130","","15","","","","","","","","","","","","","","","","","","","","","","","","","","","","","","","","","","","","","","","","","","","","","","","","","","","","","","","","","","","","","","","","","","","","","","","","","","","","","","","","","","","","","","","","","","","SYN064AAXX  30123 67205 32580 61313 10214 20161 40179 83236 333 58013;","","","","","","","","","",""
"67205099999","2005-07-01T08:00:00","-11.361789","40.354875","27.12","MOCIMBOA DA PRAIA, MZ","FM-12","4","","64","72","","","","9","74","CLR:00","30.12","","18.64","","200","","16","","","","","","","","","","","","","","","","","","","","","","","","","","","","","","","","","","","","","","","","","","","","","","","","","","","","","","","","","","","","","","","","","","","","","","","","","","","","","","","","","","","","","","","","","","","SYN086AAXX  01063 67205 32980 02014 10224 20176 40200 333 20172 50510 55071 58010 555 10000;","","","","","","","","","",""
"67205099999","2005-07-01T14:00:00","-11.361789","40.354875","27.12","MOCIMBOA DA PRAIA, MZ","FM-12","4","","63","84","","","","9","48","","30.06","","18.64","","090","","15","","","","","","","","","","","","","","","","","","","","","","","","","","","","","","","","","","","","","","","","","","","","","","","","","","","","","","","","","","","","","","","","","","","","","","","","","","","","","","","","","","","","","","","","","","","SYN064AAXX  01123 67205 32580 30913 10290 20170 40181 83200 333 58002;","","","","","","","","","",""
"67205099999","2005-07-02T08:00:00","-11.361789","40.354875","27.12","MOCIMBOA DA PRAIA, MZ","FM-12","4","","64","74","","","","9","71","CLR:00","30.13","","18.64","","180","","13","","","","","","","","","","","","","","","","","","","","","","","","","","","","","","","","","","","","","","","","","","","","","","","","","","","","","","","","","","","","","","","","","","","","","","","","","","","","","","","","","","","","","","","","","","","SYN082AAXX  02063 67205 32980 01811 10235 20180 40202 333 20175 50680 55108 58002 10000;","","","","","","","","","",""
"67205099999","2005-07-02T14:00:00","-11.361789","40.354875","27.12","MOCIMBOA DA PRAIA, MZ","FM-12","4","","66","83","","","","9","56","","30.06","","12.43","","100","","11","","","","","","","","","","","","","","","","","","","","","","","","","","","","","","","","","","","","","","","","","","","","","","","","","","","","","","","","","","","","","","","","","","","","","","","","","","","","","","","","","","","","","","","","","","","SYN064AAXX  02123 67205 32570 61010 10285 20188 40179 83250 333 59002;","","","","","","","","","",""
"67205099999","2005-07-03T20:00:00","-11.361789","40.354875","27.12","MOCIMBOA DA PRAIA, MZ","FM-12","4","","68","73","","","","9","83","CLR:00","30.13","","18.64","","150","","9","","","","","","","","","","","","","","","","","","","","","","","","","","","","","","","","","","","","","","","","","","","","","","","","","","","","","","","","","","","","","","","","","","","","","","","","","","","","","","","","","","","","","","","","","","","SYN064AAXX  03183 67205 32980 01508 10230 20200 40202 333 10300 58003;","","","","","","","","","",""
"67205099999","2005-07-04T05:00:00","-11.361789","40.354875","27.12","MOCIMBOA DA PRAIA, MZ","FM-12","4","","59","62","","","","9","90","","30.09","","18.64","","200","","8","","","","","","","","","","","","","","","","","","","","","","","","","","","","","","","","","","","","","","","","","","","","","","","","","","","","","","","","","","","","","","","","","","","","","","","","","","","","","","","","","","","","","","","","","","","SYN064AAXX  04033 67205 42980 42007 10166 20150 40189 84030 333 59006;","","","","","","","","","",""
"67205099999","2005-07-04T08:00:00","-11.361789","40.354875","27.12","MOCIMBOA DA PRAIA, MZ","FM-12","4","","60","72","","","","9","68","","30.12","","18.64","","180","","14","","","","","","","","","","","","","","","","","","","","","","","","","","","","","","","","","","","","","","","","","","","","","","","","","","","","","","","","","","","","","","","","","","","","","","","","","","","","","","","","","","","","","","","","","","","SYN088AAXX  04063 67205 32980 21812 10220 20158 40201 82030 333 20160 50580 55095 59006 10000;","","","","","","","","","",""
"67205099999","2005-07-05T08:00:00","-11.361789","40.354875","27.12","MOCIMBOA DA PRAIA, MZ","FM-12","4","","61","71","","","","9","69","","30.15","","18.64","","190","","21","","","","","","","","","","","","","","","","","","","","","","","","","","","","","","","","","","","","","","","","","","","","","","","","","","","","","","","","","","","","","","","","","","","","","","","","","","","","","","","","","","","","","","","","","","","SYN092AAXX  05063 67205 32980 61918 10218 20159 40210 80005 333 20167 50730 55097 58009 555 10000;","","","","","","","","","",""
"67205099999","2005-07-06T08:00:00","-11.361789","40.354875","27.12","MOCIMBOA DA PRAIA, MZ","FM-12","4","","","72","","","","9","","","30.18","","18.64","","200","","17","","","","","","","","","","","","","","","","","","","","","","","","","","","","","","","","","","","","","","","","","","","","","","","","","","","","","","","","","","","","","","","","","","","","","","","","","","","","","","","","","","","","","","","","","","","SYN086AAXX  06063 67205 32980 22015 10220 40220 80001 333 20175 50660 55097 58019 555 10000;","","","","","","","","","",""
"67205099999","2005-07-08T08:00:00","-11.361789","40.354875","27.12","MOCIMBOA DA PRAIA, MZ","FM-12","4","","69","77","","","","9","76","","30.02","","18.64","","170","","16","","","","","","","","","","","","","","","","","","","","","","","","","","","","","","","","","","","","","","","","","","","","","","","","","","","","","","","","","","","","","","","","","","","","","","","","","","","","","","","","","","","","","","","","","","","SYN092AAXX  08063 67205 32980 71714 10250 20204 40167 8707/ 333 20223 50700 55087 59004 555 10000;","","","","","","","","","",""
"67205099999","2005-07-10T08:00:00","-11.361789","40.354875","27.12","MOCIMBOA DA PRAIA, MZ","FM-12","4","","63","78","","","","9","60","","30.19","","18.64","","180","","13","","","","","","","","","","","","","","","","","","","","","","","","","","","","","","","","","","","","","","","","","","","","","","","","","","","","","","","","","","","","","","","","","","","","","","","","","","","","","","","","","","","","","","","","","","","SYN092AAXX  10063 67205 32580 21811 10255 20172 40225 82230 333 20204 50700 55023 58006 555 10000;","","","","","","","","","",""
"67205099999","2005-07-10T14:00:00","-11.361789","40.354875","27.12","MOCIMBOA DA PRAIA, MZ","FM-12","4","","63","83","","","","9","51","","30.15","","0.00","","110","","15","","","","","","","","","","","","","","","","","","","","","","","","","","","","","","","","","","","","","","","","","","","","","","","","","","","","","","","","","","","","","","","","","","","","","","","","","","","","","","","","","","","","","","","","","","","SYN064AAXX  10123 67205 32500 31113 10285 20173 40210 83200 333 58001;","","","","","","","","","",""
"67205099999","2005-07-11T05:00:00","-11.361789","40.354875","27.12","MOCIMBOA DA PRAIA, MZ","FM-12","4","","65","68","","","","9","91","CLR:00","30.18","","0.00","","160","","3","","","","","","","","","","","","","","","","","","","","","","","","","","","","","","","","","","","","","","","","","","","","","","","","","","","","","","","","","","","","","","","","","","","","","","","","","","","","","","","","","","","","","","","","","","","SYN058AAXX  11033 67205 42590 01603 10202 20186 40219 333 58008;","","","","","","","","","",""
"67205099999","2005-07-11T08:00:00","-11.361789","40.354875","27.12","MOCIMBOA DA PRAIA, MZ","FM-12","4","","70","76","","","","9","82","","30.21","","18.64","","180","","8","","","","","","","","","","","","","","","","","","","","","","","","","","","","","","","","","","","","","","","","","","","","","","","","","","","","","","","","","","","","","","","","","","","","","","","","","","","","","","","","","","","","","","","","","","","SYN092AAXX  11063 67205 32580 21807 10242 20209 40231 82100 333 20196 50650 55098 58006 555 10000;","","","","","","","","","",""
"67205099999","2005-07-11T14:00:00","-11.361789","40.354875","27.12","MOCIMBOA DA PRAIA, MZ","FM-12","4","","69","83","","","","9","62","","30.18","","18.64","","130","","11","","","","","","","","","","","","","","","","","","","","","","","","","","","","","","","","","","","","","","","","","","","","","","","","","","","","","","","","","","","","","","","","","","","","","","","","","","","","","","","","","","","","","","","","","","","SYN064AAXX  11123 67205 32580 21310 10285 20206 40219 82100 333 58009;","","","","","","","","","",""
"67205099999","2005-07-12T08:00:00","-11.361789","40.354875","27.12","MOCIMBOA DA PRAIA, MZ","FM-12","4","","71","78","","","","9","79","","30.21","","18.64","","160","","7","","","","","","","","","","","","","","","","","","","","","","","","","","","","","","","","","","","","","","","","","","","","","","","","","","","","","","","","","","","","","","","","","","","","","","","","","","","","","","","","","","","","","","","","","","","SYN092AAXX  12063 67205 32580 41606 10258 20218 40229 84200 333 20210 50450 55099 59002 555 10000;","","","","","","","","","",""
"67205099999","2005-07-12T14:00:00","-11.361789","40.354875","27.12","MOCIMBOA DA PRAIA, MZ","FM-12","4","","65","84","","","","9","53","","30.15","","18.64","","110","","16","","","","","","","","","","","","","","","","","","","","","","","","","","","","","","","","","","","","","","","","","","","","","","","","","","","","","","","","","","","","","","","","","","","","","","","","","","","","","","","","","","","","","","","","","","","SYN064AAXX  12123 67205 32580 21114 10290 20185 40209 82200 333 59010;","","","","","","","","","",""
"67205099999","2005-07-13T08:00:00","-11.361789","40.354875","27.12","MOCIMBOA DA PRAIA, MZ","FM-12","4","","69","77","","","","9","78","","30.17","","18.64","","180","","11","","","","","","","","","","","","","","","","","","","","","","","","","","","","","","","","","","","","","","","","","","","","","","","","","","","","","","","","","","","","","","","","","","","","","","","","","","","","","","","","","","","","","","","","","","","SYN092AAXX  13063 67205 32580 11810 10249 20208 40218 81200 333 20193 50400 55098 59011 555 10000;","","","","","","","","","",""
"67205099999","2005-07-13T14:00:00","-11.361789","40.354875","27.12","MOCIMBOA DA PRAIA, MZ","FM-12","4","","67","83","","","","9","58","","30.07","","18.64","","140","","14","","","","","","","","","","","","","","","","","","","","","","","","","","","","","","","","","","","","","","","","","","","","","","","","","","","","","","","","","","","","","","","","","","","","","","","","","","","","","","","","","","","","","","","","","","","SYN064AAXX  13123 67205 32580 31412 10282 20192 40184 83200 333 59020;","","","","","","","","","",""
"67205099999","2005-07-14T08:00:00","-11.361789","40.354875","27.12","MOCIMBOA DA PRAIA, MZ","FM-12","4","","67","75","","","","9","76","","30.12","","18.64","","170","","11","","","","","","","","","","","","","","","","","","","","","","","","","","","","","","","","","","","","","","","","","","","","","","","","","","","","","","","","","","","","","","","","","","","","","","","","","","","","","","","","","","","","","","","","","","","SYN092AAXX  14063 67205 32580 61710 10238 20194 40199 86200 333 20193 50420 55101 59019 555 10000;","","","","","","","","","",""
"67205099999","2005-07-15T08:00:00","-11.361789","40.354875","27.12","MOCIMBOA DA PRAIA, MZ","FM-12","4","","67","76","","","","9","75","","30.12","","18.64","","160","","3","","","","","","","","","","","","","","","","","","","","","","","","","","","","","","","","","","","","","","","","","","","","","","","","","","","","","","","","","","","","","","","","","","","","","","","","","","","","","","","","","","","","","","","","","","","SYN092AAXX  15063 67205 32580 11603 10242 20195 40201 81200 333 20175 50420 55017 58002 555 10000;","","","","","","","","","",""
"67205099999","2005-07-16T08:00:00","-11.361789","40.354875","27.12","MOCIMBOA DA PRAIA, MZ","FM-12","4","","70","76","","","","9","81","","30.12","","18.64","","160","","3","","","","","","","","","","","","","","","","","","","","","","","","","","","","","","","","","","","","","","","","","","","","","","","","","","","","","","","","","","","","","","","","","","","","","","","","","","","","","","","","","","","","","","","","","","","SYN092AAXX  16063 67205 32580 21603 10243 20209 40199 82200 333 20186 50560 55099 59002 555 10000;","","","","","","","","","",""
"67205099999","2005-07-16T14:00:00","-11.361789","40.354875","27.12","MOCIMBOA DA PRAIA, MZ","FM-12","4","","65","85","","","","9","51","","30.06","","18.64","","110","","16","","","","","","","","","","","","","","","","","","","","","","","","","","","","","","","","","","","","","","","","","","","","","","","","","","","","","","","","","","","","","","","","","","","","","","","","","","","","","","","","","","","","","","","","","","","SYN064AAXX  16123 67205 32580 31114 10295 20182 40179 81230 333 59000;","","","","","","","","","",""
"67205099999","2005-07-17T05:00:00","-11.361789","40.354875","27.12","MOCIMBOA DA PRAIA, MZ","FM-12","4","","60","66","","","","9","82","CLR:00","30.00","","18.64","","000","","0","","","","","","","","","","","","","","","","","","","","","","","","","","","","","","","","","","","","","","","","","","","","","","","","","","","","","","","","","","","","","","","","","","","","","","","","","","","","","","","","","","","","","","","","","","","SYN064AAXX  17033 67205 42580 00000 10190 20158 40159 82200 333 59010;","","","","","","","","","",""
"67205099999","2005-07-17T08:00:00","-11.361789","40.354875","27.12","MOCIMBOA DA PRAIA, MZ","FM-12","4","","64","75","","","","9","68","","30.12","","18.64","","160","","6","","","","","","","","","","","","","","","","","","","","","","","","","","","","","","","","","","","","","","","","","","","","","","","","","","","","","","","","","","","","","","","","","","","","","","","","","","","","","","","","","","","","","","","","","","","SYN092AAXX  17063 67205 32580 31605 10240 20178 40200 83100 333 20180 50440 55099 59001 555 10000;","","","","","","","","","",""
"67205099999","2005-07-17T14:00:00","-11.361789","40.354875","27.12","MOCIMBOA DA PRAIA, MZ","FM-12","4","","60","82","","","","9","47","","29.94","","18.64","","110","","17","","","","","","","","","","","","","","","","","","","","","","","","","","","","","","","","","","","","","","","","","","","","","","","","","","","","","","","","","","","","","","","","","","","","","","","","","","","","","","","","","","","","","","","","","","","SYN064AAXX  17123 67205 32580 31115 10280 20158 40139 83200 333 59040;","","","","","","","","","",""
"67205099999","2005-07-18T14:00:00","-11.361789","40.354875","27.12","MOCIMBOA DA PRAIA, MZ","FM-12","4","","64","83","","","","9","53","","29.95","","18.64","","100","","10","","","","","","","","","","","","","","","","","","","","","","","","","","","","","","","","","","","","","","","","","","","","","","","","","","","","","","","","","","","","","","","","","","","","","","","","","","","","","","","","","","","","","","","","","","","SYN064AAXX  18123 67205 32580 21009 10282 20176 40141 82100 333 58002;","","","","","","","","","",""
"67205099999","2005-07-19T05:00:00","-11.361789","40.354875","27.12","MOCIMBOA DA PRAIA, MZ","FM-12","4","","57","63","","","","9","79","","30.06","","18.64","","000","","0","","","","","","","","","","","","","","","","","","","","","","","","","","","","","","","","","","","","","","","","","","","","","","","","","","","","","","","","","","","","","","","","","","","","","","","","","","","","","","","","","","","","","","","","","","","SYN064AAXX  19033 67205 42580 10000 10174 20137 40179 81100 333 58002;","","","","","","","","","",""
"67205099999","2005-07-19T08:00:00","-11.361789","40.354875","27.12","MOCIMBOA DA PRAIA, MZ","FM-12","4","","63","73","","","","9","72","","30.12","","18.64","","160","","5","","","","","","","","","","","","","","","","","","","","","","","","","","","","","","","","","","","","","","","","","","","","","","","","","","","","","","","","","","","","","","","","","","","","","","","","","","","","","","","","","","","","","","","","","","","SYN092AAXX  19063 67205 32580 21604 10226 20172 40199 82100 333 20164 50600 55092 58017 555 10000;","","","","","","","","","",""
"67205099999","2005-07-19T14:00:00","-11.361789","40.354875","27.12","MOCIMBOA DA PRAIA, MZ","FM-12","4","","67","81","","","","9","62","","30.04","","18.64","","010","","81s","","","","","","","","","","","","","","","","","","","","","","","","","","","","","","","","","","","","","","","","","","","","","","","","","","","","","","","","","","","","","","","","","","","","","","","","","","","","","","","","","","","","","","","","","","","SYN064AAXX  19123 67205 32580 10170 10275 20196 40173 81100 333 58032;","","","","","","","","","",""
"67205099999","2005-07-20T05:00:00","-11.361789","40.354875","27.12","MOCIMBOA DA PRAIA, MZ","FM-12","4","","62","64","","","","9","92","","30.05","","6.21","","000","","0","","","","","","","","","","","","","","","","","","","","","","","","","","","","","","","","","","","","","","","","","","","","","","","","","","","","","","","","","","","","","","","","","","","","","","","","","","","","","","","","","","","","","","","","","","","SYN070AAXX  20033 67205 41560 10000 10180 20167 40176 710// 81130 333 59003;","","","","","","","","","",""
"67205099999","2005-07-20T08:00:00","-11.361789","40.354875","27.12","MOCIMBOA DA PRAIA, MZ","FM-12","4","","68","73","","","","9","86","","30.10","","15.53","","200","","3","","","","","","","","","","","","","","","","","","","","","","","","","","","","","","","","","","","","","","","","","","","","","","","","","","","","","","","","","","","","","","","","","","","","","","","","","","","","","","","","","","","","","","","","","","","SYN092AAXX  20063 67205 32575 12003 10226 20201 40193 81100 333 20175 50510 55098 59006 555 10000;","","","","","","","","","",""
"67205099999","2005-07-21T05:00:00","-11.361789","40.354875","27.12","MOCIMBOA DA PRAIA, MZ","FM-12","4","","66","67","","","","9","95","","30.04","","15.53","","000","","0","","","","","","","","","","","","","","","","","","","","","","","","","","","","","","","","","","","","","","","","","","","","","","","","","","","","","","","","","","","","","","","","","","","","","","","","","","","","","","","","","","","","","","","","","","","SYN064AAXX  21033 67205 42575 10000 10197 20188 40173 81130 333 59003;","","","","","","","","","",""
"67205099999","2005-07-21T14:00:00","-11.361789","40.354875","27.12","MOCIMBOA DA PRAIA, MZ","FM-12","4","","71","84","","","","9","64","","29.99","","18.64","","110","","9","","","","","","","","","","","","","","","","","","","","","","","","","","","","","","","","","","","","","","","","","","","","","","","","","","","","","","","","","","","","","","","","","","","","","","","","","","","","","","","","","","","","","","","","","","","SYN064AAXX  21123 67205 32580 61108 10291 20217 40157 82130 333 59001;","","","","","","","","","",""
"67205099999","2005-07-22T05:00:00","-11.361789","40.354875","27.12","MOCIMBOA DA PRAIA, MZ","FM-12","4","","69","72","","","","9","91","","30.02","","15.53","","000","","0","","","","","","","","","","","","","","","","","","","","","","","","","","","","","","","","","","","","","","","","","","","","","","","","","","","","","","","","","","","","","","","","","","","","","","","","","","","","","","","","","","","","","","","","","","","SYN064AAXX  22033 67205 42575 70000 10221 20206 40166 8223/ 333 59007;","","","","","","","","","",""
"67205099999","2005-07-22T08:00:00","-11.361789","40.354875","27.12","MOCIMBOA DA PRAIA, MZ","FM-12","4","","72","77","","","","9","85","","30.06","","18.64","","170","","5","","","","","","","","","","","","","","","","","","","","","","","","","","","","","","","","","","","","","","","","","","","","","","","","","","","","","","","","","","","","","","","","","","","","","","","","","","","","","","","","","","","","","","","","","","","SYN092AAXX  22063 67205 32580 71704 10250 20222 40178 8213/ 333 20217 50480 55067 59008 555 10000;","","","","","","","","","",""
"67205099999","2005-07-22T14:00:00","-11.361789","40.354875","27.12","MOCIMBOA DA PRAIA, MZ","FM-12","4","","71","85","","","","9","63","","30.03","","18.64","","160","","11","","","","","","","","","","","","","","","","","","","","","","","","","","","","","","","","","","","","","","","","","","","","","","","","","","","","","","","","","","","","","","","","","","","","","","","","","","","","","","","","","","","","","","","","","","","SYN064AAXX  22123 67205 32580 71610 10295 20216 40169 85231 333 58012;","","","","","","","","","",""
"67205099999","2005-07-22T20:00:00","-11.361789","40.354875","27.12","MOCIMBOA DA PRAIA, MZ","FM-12","4","","71","75","","","","9","86","","30.08","","18.64","","000","","0","","","","","","","","","","","","","","","","","","","","","","","","","","","","","","","","","","","","","","","","","","","","","","","","","","","","","","","","","","","","","","","","","","","","","","","","","","","","","","","","","","","","","","","","","","","SYN070AAXX  22183 67205 32580 20000 10238 20214 40187 82130 333 10226 58016;","","","","","","","","","",""
"67205099999","2005-07-23T05:00:00","-11.361789","40.354875","27.12","MOCIMBOA DA PRAIA, MZ","FM-12","4","","68","69","","","","9","96","","30.06","","9.32","","000","","0","","","","","","","","","","","","","","","","","","","","","","","","","","","","","","","","","","","","","","","","","","","","","","","","","","","","","","","","","","","","","","","","","","","","","","","","","","","","","","","","","","","","","","","","","","","SYN070AAXX  23033 67205 41565 10000 10205 20198 40180 710// 81230 333 58014;","","","","","","","","","",""
"67205099999","2005-07-23T14:00:00","-11.361789","40.354875","27.12","MOCIMBOA DA PRAIA, MZ","FM-12","4","","71","84","","","","9","67","","30.05","","18.64","","100","","9","","","","","","","","","","","","","","","","","","","","","","","","","","","","","","","","","","","","","","","","","","","","","","","","","","","","","","","","","","","","","","","","","","","","","","","","","","","","","","","","","","","","","","","","","","","SYN064AAXX  23123 67205 32580 11008 10287 20219 40177 81100 333 58008;","","","","","","","","","",""
"67205099999","2005-07-23T20:00:00","-11.361789","40.354875","27.12","MOCIMBOA DA PRAIA, MZ","FM-12","4","","70","75","","","","9","84","","30.11","","15.53","","150","","3","","","","","","","","","","","","","","","","","","","","","","","","","","","","","","","","","","","","","","","","","","","","","","","","","","","","","","","","","","","","","","","","","","","","","","","","","","","","","","","","","","","","","","","","","","","SYN070AAXX  23183 67205 32575 11503 10240 20211 40197 81100 333 10298 58010;","","","","","","","","","",""
"67205099999","2005-07-24T05:00:00","-11.361789","40.354875","27.12","MOCIMBOA DA PRAIA, MZ","FM-12","4","","65","69","","","","9","86","","30.12","","15.53","","030","","7","","","","","","","","","","","","","","","","","","","","","","","","","","","","","","","","","","","","","","","","","","","","","","","","","","","","","","","","","","","","","","","","","","","","","","","","","","","","","","","","","","","","","","","","","","","SYN064AAXX  24033 67205 42575 10306 10207 20182 40200 81231 333 58020;","","","","","","","","","",""
"67205099999","2005-07-25T08:00:00","-11.361789","40.354875","27.12","MOCIMBOA DA PRAIA, MZ","FM-12","4","","70","75","","","","9","84","","30.14","","15.53","","190","","11","","","","","","","","","","","","","","","","","","","","","","","","","","","","","","","","","","","","","","","","","","","","","","","","","","","","","","","","","","","","","","","","","","","","","","","","","","","","","","","","","","","","","","","","","","","SYN092AAXX  25063 67205 32575 51910 10240 20211 40205 85100 333 20205 50450 55100 59011 555 10000;","","","","","","","","","",""
"67205099999","2005-07-26T08:00:00","-11.361789","40.354875","27.12","MOCIMBOA DA PRAIA, MZ","FM-12","4","","67","70","","","","9","91","","30.09","","12.43","","000","","0","","","","","","","","","","","","","","","","","","","","","","","","","","","","","","","","","","","","","","","","","","","","","","","","","","","","","","","","","","","","","","","","","","","","","","","","","","","","","","","","","","","","","","","","","","","SYN092AAXX  26063 67205 32570 70000 10211 20195 40188 8527/ 333 20188 50450 55094 59017 555 10000;","","","","","","","","","",""
"67205099999","2005-07-29T14:00:00","-11.361789","40.354875","27.12","MOCIMBOA DA PRAIA, MZ","FM-12","4","","59","81","","","","9","46","","30.12","","15.53","","140","","18","","","","","","","","","","","","","","","","","","","","","","","","","","","","","","","","","","","","","","","","","","","","","","","","","","","","","","","","","","","","","","","","","","","","","","","","","","","","","","","","","","","","","","","","","","","SYN064AAXX  29123 67205 32575 31416 10275 20149 40201 83230 333 58007;","","","","","","","","","",""
"67205099999","2005-08-03T08:00:00","-11.361789","40.354875","27.12","MOCIMBOA DA PRAIA, MZ","FM-12","4","","67","76","","","","9","73","","30.10","","15.53","","170","","5","","","","","","","","","","","","","","","","","","","","","","","","","","","","","","","","","","","","","","","","","","","","","","","","","","","","","","","","","","","","","","","","","","","","","","","","","","","","","","","","","","","","","","","","","","","SYN092AAXX  03063 67205 32575 21704 10245 20194 40192 81230 333 20181 50460 55051 59000 555 10000;","","","","","","","","","",""
"67205099999","2005-08-04T05:00:00","-11.361789","40.354875","27.12","MOCIMBOA DA PRAIA, MZ","FM-12","4","","64","65","","","","9","96","","30.07","","9.32","","000","","0","","","","","","","","","","","","","","","","","","","","","","","","","","","","","","","","","","","","","","","","","","","","","","","","","","","","","","","","","","","","","","","","","","","","","","","","","","","","","","","","","","","","","","","","","","","SYN070AAXX  04033 67205 41565 40000 10184 20178 40182 710// 81130 333 58004;","","","","","","","","","",""
"67205099999","2005-08-04T14:00:00","-11.361789","40.354875","27.12","MOCIMBOA DA PRAIA, MZ","FM-12","4","","66","84","","","","9","54","","30.06","","18.64","","140","","11","","","","","","","","","","","","","","","","","","","","","","","","","","","","","","","","","","","","","","","","","","","","","","","","","","","","","","","","","","","","","","","","","","","","","","","","","","","","","","","","","","","","","","","","","","","SYN064AAXX  04123 67205 32580 51410 10289 20188 40178 85230 333 58005;","","","","","","","","","",""
"67205099999","2005-08-05T08:00:00","-11.361789","40.354875","27.12","MOCIMBOA DA PRAIA, MZ","FM-12","4","","69","72","","","","9","90","","30.14","","12.43","","300","","3","","","","","","","","","","","","","","","","","","","","","","","","","","","","","","","","","","","","","","","","","","","","","","","","","","","","","","","","","","","","","","","","","","","","","","","","","","","","","","","","","","","","","","","","","","","SYN104AAXX  05063 67205 12570 73003 10223 20206 40206 60044 8527/ 333 20215 50610 55095 58008 555 00035 10000;","","","","","","","","","",""
"67205099999","2005-08-05T20:00:00","-11.361789","40.354875","27.12","MOCIMBOA DA PRAIA, MZ","FM-12","4","","69","72","","","","9","89","","30.13","","15.53","","000","","0","","","","","","","","","","","","","","","","","","","","","","","","","","","","","","","","","","","","","","","","","","","","","","","","","","","","","","","","","","","","","","","","","","","","","","","","","","","","","","","","","","","","","","","","","","","SYN070AAXX  05183 67205 32575 10000 10224 20204 40202 81130 333 10269 58006;","","","","","","","","","",""
"67205099999","2005-08-06T05:00:00","-11.361789","40.354875","27.12","MOCIMBOA DA PRAIA, MZ","FM-12","4","","65","68","","","","9","91","","30.08","","15.53","","000","","0","","","","","","","","","","","","","","","","","","","","","","","","","","","","","","","","","","","","","","","","","","","","","","","","","","","","","","","","","","","","","","","","","","","","","","","","","","","","","","","","","","","","","","","","","","","SYN064AAXX  06033 67205 42575 60000 10200 20185 40186 82230 333 58001;","","","","","","","","","",""
"67205099999","2005-08-08T05:00:00","-11.361789","40.354875","27.12","MOCIMBOA DA PRAIA, MZ","FM-12","4","","62","67","","","","9","84","","30.05","","15.53","","000","","0","","","","","","","","","","","","","","","","","","","","","","","","","","","","","","","","","","","","","","","","","","","","","","","","","","","","","","","","","","","","","","","","","","","","","","","","","","","","","","","","","","","","","","","","","","","SYN064AAXX  08033 67205 42575 10000 10195 20167 40177 81150 333 58001;","","","","","","","","","",""
"67205099999","2005-08-09T05:00:00","-11.361789","40.354875","27.12","MOCIMBOA DA PRAIA, MZ","FM-12","4","","64","66","","","","9","93","","30.07","","15.53","","000","","0","","","","","","","","","","","","","","","","","","","","","","","","","","","","","","","","","","","","","","","","","","","","","","","","","","","","","","","","","","","","","","","","","","","","","","","","","","","","","","","","","","","","","","","","","","","SYN064AAXX  09033 67205 42575 20000 10189 20178 40183 82230 333 58006;","","","","","","","","","",""
"67205099999","2005-08-09T20:00:00","-11.361789","40.354875","27.12","MOCIMBOA DA PRAIA, MZ","FM-12","4","","70","76","","","","9","81","","30.08","","15.53","","020","","10","","","","","","","","","","","","","","","","","","","","","","","","","","","","","","","","","","","","","","","","","","","","","","","","","","","","","","","","","","","","","","","","","","","","","","","","","","","","","","","","","","","","","","","","","","","SYN070AAXX  09183 67205 32575 20209 10245 20211 40185 82230 333 10292 59006;","","","","","","","","","",""
"67205099999","2005-08-10T05:00:00","-11.361789","40.354875","27.12","MOCIMBOA DA PRAIA, MZ","FM-12","4","","66","68","","","","9","93","","30.08","","15.53","","000","","0","","","","","","","","","","","","","","","","","","","","","","","","","","","","","","","","","","","","","","","","","","","","","","","","","","","","","","","","","","","","","","","","","","","","","","","","","","","","","","","","","","","","","","","","","","","SYN064AAXX  10033 67205 42575 40000 10199 20188 40186 81130 333 58003;","","","","","","","","","",""
"67205099999","2005-08-10T08:00:00","-11.361789","40.354875","27.12","MOCIMBOA DA PRAIA, MZ","FM-12","4","","70","74","","","","9","87","","30.12","","18.64","","VRB","","2","","","","","","","","","","","","","","","","","","","","","","","","","","","","","","","","","","","","","","","","","","","","","","","","","","","","","","","","","","","","","","","","","","","","","","","","","","","","","","","","","","","","","","","","","","","SYN092AAXX  10063 67205 32580 49902 10236 20213 40201 81130 333 20187 50370 55100 58005 555 10000;","","","","","","","","","",""
"67205099999","2005-08-10T14:00:00","-11.361789","40.354875","27.12","MOCIMBOA DA PRAIA, MZ","FM-12","4","","67","85","","","","9","55","","30.05","","18.64","","090","","8","","","","","","","","","","","","","","","","","","","","","","","","","","","","","","","","","","","","","","","","","","","","","","","","","","","","","","","","","","","","","","","","","","","","","","","","","","","","","","","","","","","","","","","","","","","SYN064AAXX  10123 67205 32580 40907 10293 20193 40176 81136 333 59003;","","","","","","","","","",""
"67205099999","2005-08-10T20:00:00","-11.361789","40.354875","27.12","MOCIMBOA DA PRAIA, MZ","FM-12","4","","69","77","","","","9","78","","30.09","","12.43","","100","","6","","","","","","","","","","","","","","","","","","","","","","","","","","","","","","","","","","","","","","","","","","","","","","","","","","","","","","","","","","","","","","","","","","","","","","","","","","","","","","","","","","","","","","","","","","","SYN070AAXX  10183 67205 32570 61005 10249 20207 40189 85250 333 10293 58004;","","","","","","","","","",""
"67205099999","2005-08-11T05:00:00","-11.361789","40.354875","27.12","MOCIMBOA DA PRAIA, MZ","FM-12","4","","66","70","","","","","89","","30.06","","15.53","","000","","0","","","","","","","","","","","","","","","","","","","","","","","","","","","","","","","","","","","","","","","","","","","","","","","","","","","","","","","","","","","","","","","","","","","","","","","","","","","","","","","","","","","","","","","","","","","SYN064AAXX  11033 67205 42575 30000 10209 20190 40179 82131 333 57007;","","","","","","","","","",""
"67205099999","2005-08-11T08:00:00","-11.361789","40.354875","27.12","MOCIMBOA DA PRAIA, MZ","FM-12","4","","69","77","","","","9","78","","30.10","","18.64","","340","","2","","","","","","","","","","","","","","","","","","","","","","","","","","","","","","","","","","","","","","","","","","","","","","","","","","","","","","","","","","","","","","","","","","","","","","","","","","","","","","","","","","","","","","","","","","","SYN092AAXX  11063 67205 32580 33402 10248 20207 40192 81130 333 20202 50360 55094 59009 555 10000;","","","","","","","","","",""
"67205099999","2005-08-11T14:00:00","-11.361789","40.354875","27.12","MOCIMBOA DA PRAIA, MZ","FM-12","4","","69","83","","","","9","62","","30.00","","18.64","","070","","7","","","","","","","","","","","","","","","","","","","","","","","","","","","","","","","","","","","","","","","","","","","","","","","","","","","","","","","","","","","","","","","","","","","","","","","","","","","","","","","","","","","","","","","","","","","SYN064AAXX  11123 67205 32580 60706 10285 20206 40160 82330 333 59016;","","","","","","","","","",""
"67205099999","2005-08-12T05:00:00","-11.361789","40.354875","27.12","MOCIMBOA DA PRAIA, MZ","FM-12","4","","69","71","","","","9","95","","30.02","","12.43","","000","","0","","","","","","","","","","","","","","","","","","","","","","","","","","","","","","","","","","","","","","","","","","","","","","","","","","","","","","","","","","","","","","","","","","","","","","","","","","","","","","","","","","","","","","","","","","","SYN064AAXX  12033 67205 42570 70000 10215 20206 40165 8127/ 333 59014;","","","","","","","","","",""
"67205099999","2005-08-12T08:00:00","-11.361789","40.354875","27.12","MOCIMBOA DA PRAIA, MZ","FM-12","4","","70","76","","","","9","80","","30.04","","15.53","","180","","2","","","","","","","","","","","","","","","","","","","","","","","","","","","","","","","","","","","","","","","","","","","","","","","","","","","","","","","","","","","","","","","","","","","","","","","","","","","","","","","","","","","","","","","","","","","SYN092AAXX  12063 67205 32575 71802 10245 20209 40174 8213/ 333 20214 50400 55088 59018 555 10000;","","","","","","","","","",""
"67205099999","2005-08-12T14:00:00","-11.361789","40.354875","27.12","MOCIMBOA DA PRAIA, MZ","FM-12","4","","69","82","","","","9","65","","29.98","","18.64","","090","","8","","","","","","","","","","","","","","","","","","","","","","","","","","","","","","","","","","","","","","","","","","","","","","","","","","","","","","","","","","","","","","","","","","","","","","","","","","","","","","","","","","","","","","","","","","","SYN064AAXX  12123 67205 32580 70907 10279 20207 40151 8015/ 333 59009;","","","","","","","","","",""
"67205099999","2005-08-13T05:00:00","-11.361789","40.354875","27.12","MOCIMBOA DA PRAIA, MZ","FM-12","4","","64","66","","","","9","92","","30.00","","18.64","","000","","0","","","","","","","","","","","","","","","","","","","","","","","","","","","","","","","","","","","","","","","","","","","","","","","","","","","","","","","","","","","","","","","","","","","","","","","","","","","","","","","","","","","","","","","","","","","SYN064AAXX  13034 67205 42580 20000 10190 20176 40160 82200 333 59005;","","","","","","","","","",""
"67205099999","2005-08-14T14:00:00","-11.361789","40.354875","27.12","MOCIMBOA DA PRAIA, MZ","FM-12","4","","68","85","","","","9","58","","30.00","","18.64","","150","","9","","","","","","","","","","","","","","","","","","","","","","","","","","","","","","","","","","","","","","","","","","","","","","","","","","","","","","","","","","","","","","","","","","","","","","","","","","","","","","","","","","","","","","","","","","","SYN064AAXX  14123 67205 32580 51508 10293 20202 40158 82231 333 58014;","","","","","","","","","",""
"67205099999","2005-08-15T08:00:00","-11.361789","40.354875","27.12","MOCIMBOA DA PRAIA, MZ","FM-12","4","","70","75","","","","9","84","","30.05","","18.64","","000","","0","","","","","","","","","","","","","","","","","","","","","","","","","","","","","","","","","","","","","","","","","","","","","","","","","","","","","","","","","","","","","","","","","","","","","","","","","","","","","","","","","","","","","","","","","","","SYN092AAXX  15063 67205 32580 10000 10240 20212 40176 81100 333 20189 50420 55061 59007 555 10000;","","","","","","","","","",""
"67205099999","2005-08-15T20:00:00","-11.361789","40.354875","27.12","MOCIMBOA DA PRAIA, MZ","FM-12","4","","69","76","","","","9","78","","30.04","","12.43","","000","","0","","","","","","","","","","","","","","","","","","","","","","","","","","","","","","","","","","","","","","","","","","","","","","","","","","","","","","","","","","","","","","","","","","","","","","","","","","","","","","","","","","","","","","","","","","","SYN070AAXX  15183 67205 32570 50000 10246 20204 40173 84230 333 10293 58005;","","","","","","","","","",""
"67205099999","2005-08-16T05:00:00","-11.361789","40.354875","27.12","MOCIMBOA DA PRAIA, MZ","FM-12","4","","64","66","","","","9","93","","30.02","","9.32","","000","","0","","","","","","","","","","","","","","","","","","","","","","","","","","","","","","","","","","","","","","","","","","","","","","","","","","","","","","","","","","","","","","","","","","","","","","","","","","","","","","","","","","","","","","","","","","","SYN070AAXX  16033 67205 41565 30000 10190 20178 40166 710// 82130 333 58004;","","","","","","","","","",""
"67205099999","2005-08-16T08:00:00","-11.361789","40.354875","27.12","MOCIMBOA DA PRAIA, MZ","FM-12","4","","70","76","","","","9","80","","30.05","","15.53","","000","","0","","","","","","","","","","","","","","","","","","","","","","","","","","","","","","","","","","","","","","","","","","","","","","","","","","","","","","","","","","","","","","","","","","","","","","","","","","","","","","","","","","","","","","","","","","","SYN092AAXX  16063 67205 32575 10000 10245 20209 40176 81130 333 20188 50300 55093 58000 555 10000;","","","","","","","","","",""
"67205099999","2005-08-19T08:00:00","-11.361789","40.354875","27.12","MOCIMBOA DA PRAIA, MZ","FM-12","4","","70","76","","","","9","82","","30.00","","18.64","","000","","0","","","","","","","","","","","","","","","","","","","","","","","","","","","","","","","","","","","","","","","","","","","","","","","","","","","","","","","","","","","","","","","","","","","","","","","","","","","","","","","","","","","","","","","","","","","SYN092AAXX  19063 67205 32580 10000 10242 20210 40159 81200 333 20190 50380 55104 58006 555 10000;","","","","","","","","","",""
"67205099999","2005-08-19T20:00:00","-11.361789","40.354875","27.12","MOCIMBOA DA PRAIA, MZ","FM-12","4","","71","73","","","","9","91","","30.03","","18.64","","000","","0","","","","","","","","","","","","","","","","","","","","","","","","","","","","","","","","","","","","","","","","","","","","","","","","","","","","","","","","","","","","","","","","","","","","","","","","","","","","","","","","","","","","","","","","","","","SYN070AAXX  19183 67205 32580 10000 10230 20215 40169 81100 333 10293 59006;","","","","","","","","","",""
"67205099999","2005-08-20T05:00:00","-11.361789","40.354875","27.12","MOCIMBOA DA PRAIA, MZ","FM-12","4","","64","66","","","","9","92","","30.03","","18.64","","000","","0","","","","","","","","","","","","","","","","","","","","","","","","","","","","","","","","","","","","","","","","","","","","","","","","","","","","","","","","","","","","","","","","","","","","","","","","","","","","","","","","","","","","","","","","","","","SYN064AAXX  20034 67205 42580 30000 10190 20177 40170 83200 333 58000;","","","","","","","","","",""
"67205099999","2005-08-20T08:00:00","-11.361789","40.354875","27.12","MOCIMBOA DA PRAIA, MZ","FM-12","4","","70","76","","","","9","81","","30.08","","18.64","","180","","5","","","","","","","","","","","","","","","","","","","","","","","","","","","","","","","","","","","","","","","","","","","","","","","","","","","","","","","","","","","","","","","","","","","","","","","","","","","","","","","","","","","","","","","","","","","SYN092AAXX  20063 67205 32580 41804 10244 20210 40186 82230 333 20188 50410 55103 58007 555 10000;","","","","","","","","","",""
"67205099999","2005-08-21T08:00:00","-11.361789","40.354875","27.12","MOCIMBOA DA PRAIA, MZ","FM-12","4","","70","73","","","","9","89","CLR:00","30.04","","18.64","","190","","3","","","","","","","","","","","","","","","","","","","","","","","","","","","","","","","","","","","","","","","","","","","","","","","","","","","","","","","","","","","","","","","","","","","","","","","","","","","","","","","","","","","","","","","","","","","SYN086AAXX  21063 67205 32980 01903 10230 20210 40172 333 20178 50300 55099 59014 555 10000;","","","","","","","","","",""
"67205099999","2005-08-22T05:00:00","-11.361789","40.354875","27.12","MOCIMBOA DA PRAIA, MZ","FM-12","4","","64","66","","","","9","93","","30.03","","18.64","","000","","0","","","","","","","","","","","","","","","","","","","","","","","","","","","","","","","","","","","","","","","","","","","","","","","","","","","","","","","","","","","","","","","","","","","","","","","","","","","","","","","","","","","","","","","","","","","SYN064AAXX  22033 67205 42580 20000 10188 20177 40169 82200 333 58010;","","","","","","","","","",""
"67205099999","2005-08-22T08:00:00","-11.361789","40.354875","27.12","MOCIMBOA DA PRAIA, MZ","FM-12","4","","64","76","","","","9","67","CLR:00","30.06","","18.64","","170","","13","","","","","","","","","","","","","","","","","","","","","","","","","","","","","","","","","","","","","","","","","","","","","","","","","","","","","","","","","","","","","","","","","","","","","","","","","","","","","","","","","","","","","","","","","","","SYN086AAXX  22063 67205 32980 01711 10245 20180 40178 333 20186 50430 55103 58006 555 10000;","","","","","","","","","",""
"67205099999","2005-08-22T14:00:00","-11.361789","40.354875","27.12","MOCIMBOA DA PRAIA, MZ","FM-12","4","","62","85","","","","9","47","","29.98","","18.64","","090","","16","","","","","","","","","","","","","","","","","","","","","","","","","","","","","","","","","","","","","","","","","","","","","","","","","","","","","","","","","","","","","","","","","","","","","","","","","","","","","","","","","","","","","","","","","","","SYN064AAXX  22123 67205 32580 20914 10294 20168 40154 82200 333 58005;","","","","","","","","","",""
"67205099999","2005-08-23T08:00:00","-11.361789","40.354875","27.12","MOCIMBOA DA PRAIA, MZ","FM-12","4","","65","74","","","","9","74","","30.06","","18.64","","180","","11","","","","","","","","","","","","","","","","","","","","","","","","","","","","","","","","","","","","","","","","","","","","","","","","","","","","","","","","","","","","","","","","","","","","","","","","","","","","","","","","","","","","","","","","","","","SYN092AAXX  23063 67205 32580 51810 10231 20181 40179 83230 333 20196 50520 55098 58001 555 10000;","","","","","","","","","",""
"67205099999","2005-08-23T14:00:00","-11.361789","40.354875","27.12","MOCIMBOA DA PRAIA, MZ","FM-12","4","","65","86","","","","9","50","CLR:00","29.98","","18.64","","090","","13","","","","","","","","","","","","","","","","","","","","","","","","","","","","","","","","","","","","","","","","","","","","","","","","","","","","","","","","","","","","","","","","","","","","","","","","","","","","","","","","","","","","","","","","","","","SYN058AAXX  23123 67205 32980 00911 10299 20183 40151 333 59003;","","","","","","","","","",""
"67205099999","2005-08-24T08:00:00","-11.361789","40.354875","27.12","MOCIMBOA DA PRAIA, MZ","FM-12","4","","70","76","","","","9","82","","30.06","","18.64","","030","","3","","","","","","","","","","","","","","","","","","","","","","","","","","","","","","","","","","","","","","","","","","","","","","","","","","","","","","","","","","","","","","","","","","","","","","","","","","","","","","","","","","","","","","","","","","","SYN092AAXX  24063 67205 32580 30303 10242 20210 40180 83200 333 20200 50550 55099 58005 555 10000;","","","","","","","","","",""
"67205099999","2005-08-24T20:00:00","-11.361789","40.354875","27.12","MOCIMBOA DA PRAIA, MZ","FM-12","4","","71","74","","","","9","90","CLR:00","30.06","","18.64","","120","","3","","","","","","","","","","","","","","","","","","","","","","","","","","","","","","","","","","","","","","","","","","","","","","","","","","","","","","","","","","","","","","","","","","","","","","","","","","","","","","","","","","","","","","","","","","","SYN064AAXX  24183 67205 32980 01203 10233 20216 40179 333 10297 58004;","","","","","","","","","",""
"67205099999","2005-08-25T05:00:00","-11.361789","40.354875","27.12","MOCIMBOA DA PRAIA, MZ","FM-12","4","","66","68","","","","9","92","","30.03","","18.64","","000","","0","","","","","","","","","","","","","","","","","","","","","","","","","","","","","","","","","","","","","","","","","","","","","","","","","","","","","","","","","","","","","","","","","","","","","","","","","","","","","","","","","","","","","","","","","","","SYN064AAXX  25033 67205 42580 20000 10200 20187 40169 82200 333 58009;","","","","","","","","","",""
"67205099999","2005-08-25T08:00:00","-11.361789","40.354875","27.12","MOCIMBOA DA PRAIA, MZ","FM-12","4","","70","77","","","","9","78","CLR:00","30.06","","18.64","","000","","0","","","","","","","","","","","","","","","","","","","","","","","","","","","","","","","","","","","","","","","","","","","","","","","","","","","","","","","","","","","","","","","","","","","","","","","","","","","","","","","","","","","","","","","","","","","SYN086AAXX  25063 67205 32980 00000 10250 20209 40180 333 20196 50400 55097 58000 555 10000;","","","","","","","","","",""
"67205099999","2005-08-26T08:00:00","-11.361789","40.354875","27.12","MOCIMBOA DA PRAIA, MZ","FM-12","4","","67","75","","","","9","77","","30.07","","18.64","","000","","0","","","","","","","","","","","","","","","","","","","","","","","","","","","","","","","","","","","","","","","","","","","","","","","","","","","","","","","","","","","","","","","","","","","","","","","","","","","","","","","","","","","","","","","","","","","SYN092AAXX  26063 67205 32580 40000 10240 20197 40184 84200 333 20197 50470 55100 58004 555 10000;","","","","","","","","","",""
"67205099999","2005-08-26T14:00:00","-11.361789","40.354875","27.12","MOCIMBOA DA PRAIA, MZ","FM-12","4","","62","87","","","","9","44","CLR:00","","26.33","9.32","70","140","","15","","","","","","","","","","","","","","","","","","","","","","","","","","","","","","","","","","","","","","","","","","","","","","","","","","","","","","","","","","","","","","","","","","","","","","","","","","","","","","","","","","","","","","","","","","","SYN070AAXX  26123 67205 31965 01413 10304 20168 38916 48557 750// 333 58010;","","","","","","","","","",""
"67205099999","2005-08-27T08:00:00","-11.361789","40.354875","27.12","MOCIMBOA DA PRAIA, MZ","FM-12","4","","70","76","","","","9","80","CLR:00","30.09","","18.64","","000","","0","","","","","","","","","","","","","","","","","","","","","","","","","","","","","","","","","","","","","","","","","","","","","","","","","","","","","","","","","","","","","","","","","","","","","","","","","","","","","","","","","","","","","","","","","","","SYN086AAXX  27063 67205 32980 00000 10246 20209 40190 333 20201 50500 55096 58006 555 10000;","","","","","","","","","",""
"67205099999","2005-08-28T08:00:00","-11.361789","40.354875","27.12","MOCIMBOA DA PRAIA, MZ","FM-12","4","","70","76","","","","9","80","","30.11","","18.64","","000","","0","","","","","","","","","","","","","","","","","","","","","","","","","","","","","","","","","","","","","","","","","","","","","","","","","","","","","","","","","","","","","","","","","","","","","","","","","","","","","","","","","","","","","","","","","","","SYN092AAXX  28063 67205 32580 20000 10245 20209 40197 82200 333 20182 50410 55101 58007 555 10000;","","","","","","","","","",""
"67205099999","2005-08-29T08:00:00","-11.361789","40.354875","27.12","MOCIMBOA DA PRAIA, MZ","FM-12","4","","68","74","","","","9","81","","30.12","","18.64","","130","","10","","","","","","","","","","","","","","","","","","","","","","","","","","","","","","","","","","","","","","","","","","","","","","","","","","","","","","","","","","","","","","","","","","","","","","","","","","","","","","","","","","","","","","","","","","","SYN092AAXX  29063 67205 32580 31309 10235 20200 40201 85200 333 20197 50490 55103 58004 555 10000;","","","","","","","","","",""
"67205099999","2005-08-29T20:00:00","-11.361789","40.354875","27.12","MOCIMBOA DA PRAIA, MZ","FM-12","4","","72","75","","","","9","92","","30.12","","18.64","","000","","0","","","","","","","","","","","","","","","","","","","","","","","","","","","","","","","","","","","","","","","","","","","","","","","","","","","","","","","","","","","","","","","","","","","","","","","","","","","","","","","","","","","","","","","","","","","SYN070AAXX  29183 67205 32580 20000 10238 20225 40199 82200 333 10294 58005;","","","","","","","","","",""
"67205099999","2005-08-30T05:00:00","-11.361789","40.354875","27.12","MOCIMBOA DA PRAIA, MZ","FM-12","4","","64","66","","","","9","93","CLR:00","30.09","","18.64","","000","","0","","","","","","","","","","","","","","","","","","","","","","","","","","","","","","","","","","","","","","","","","","","","","","","","","","","","","","","","","","","","","","","","","","","","","","","","","","","","","","","","","","","","","","","","","","","SYN058AAXX  30033 67205 42980 00000 10189 20178 40191 333 58001;","","","","","","","","","",""
"67205099999","2005-08-31T08:00:00","-11.361789","40.354875","27.12","MOCIMBOA DA PRAIA, MZ","FM-12","4","","67","76","","","","9","75","","30.10","","18.64","","100","","5","","","","","","","","","","","","","","","","","","","","","","","","","","","","","","","","","","","","","","","","","","","","","","","","","","","","","","","","","","","","","","","","","","","","","","","","","","","","","","","","","","","","","","","","","","","SYN092AAXX  31063 67205 32580 51004 10242 20195 40193 83230 333 20195 50210 55101 59014 555 10000;","","","","","","","","","",""
"67205099999","2005-09-01T05:00:00","-11.361789","40.354875","27.12","MOCIMBOA DA PRAIA, MZ","FM-12","4","","64","65","","","","9","96","","30.03","","18.64","","000","","0","","","","","","","","","","","","","","","","","","","","","","","","","","","","","","","","","","","","","","","","","","","","","","","","","","","","","","","","","","","","","","","","","","","","","","","","","","","","","","","","","","","","","","","","","","","SYN064AAXX  01033 67205 42580 50000 10184 20178 40170 85200 333 59009;","","","","","","","","","",""
"67205099999","2005-09-01T08:00:00","-11.361789","40.354875","27.12","MOCIMBOA DA PRAIA, MZ","FM-12","4","","70","75","","","","9","83","","30.11","","18.64","","000","","0","","","","","","","","","","","","","","","","","","","","","","","","","","","","","","","","","","","","","","","","","","","","","","","","","","","","","","","","","","","","","","","","","","","","","","","","","","","","","","","","","","","","","","","","","","","SYN104AAXX  01063 67205 12580 50000 10240 20210 40196 60074 82200 333 20180 50510 55020 59003 555 00072 10000;","","","","","","","","","",""
"67205099999","2005-09-01T14:00:00","-11.361789","40.354875","27.12","MOCIMBOA DA PRAIA, MZ","FM-12","4","","69","83","","","","9","64","","29.98","","18.64","","060","","8","","","","","","","","","","","","","","","","","","","","","","","","","","","","","","","","","","","","","","","","","","","","","","","","","","","","","","","","","","","","","","","","","","","","","","","","","","","","","","","","","","","","","","","","","","","SYN064AAXX  01123 67205 32580 20607 10282 20208 40152 82200 333 59022;","","","","","","","","","",""
"67205099999","2005-09-02T08:00:00","-11.361789","40.354875","27.12","MOCIMBOA DA PRAIA, MZ","FM-12","4","","70","76","","","","9","82","","30.09","","18.64","","000","","0","","","","","","","","","","","","","","","","","","","","","","","","","","","","","","","","","","","","","","","","","","","","","","","","","","","","","","","","","","","","","","","","","","","","","","","","","","","","","","","","","","","","","","","","","","","SYN092AAXX  02063 67205 32580 20000 10242 20210 40191 81230 333 20193 50360 55101 58001 555 10072;","","","","","","","","","",""
"67205099999","2005-09-03T05:00:00","-11.361789","40.354875","27.12","MOCIMBOA DA PRAIA, MZ","FM-12","4","","67","69","","","","9","94","","30.06","","18.64","","000","","0","","","","","","","","","","","","","","","","","","","","","","","","","","","","","","","","","","","","","","","","","","","","","","","","","","","","","","","","","","","","","","","","","","","","","","","","","","","","","","","","","","","","","","","","","","","SYN064AAXX  03033 67205 42580 20000 10207 20197 40178 82200 333 58001;","","","","","","","","","",""
"67205099999","2005-09-04T05:00:00","-11.361789","40.354875","27.12","MOCIMBOA DA PRAIA, MZ","FM-12","4","","67","69","","","","9","95","","30.00","","18.64","","000","","0","","","","","","","","","","","","","","","","","","","","","","","","","","","","","","","","","","","","","","","","","","","","","","","","","","","","","","","","","","","","","","","","","","","","","","","","","","","","","","","","","","","","","","","","","","","SYN064AAXX  04033 67205 42580 10000 10204 20196 40160 81200 333 59018;","","","","","","","","","",""
"67205099999","2005-09-04T14:00:00","-11.361789","40.354875","27.12","MOCIMBOA DA PRAIA, MZ","FM-12","4","","74","85","","","","9","69","","29.97","","18.64","","090","","11","","","","","","","","","","","","","","","","","","","","","","","","","","","","","","","","","","","","","","","","","","","","","","","","","","","","","","","","","","","","","","","","","","","","","","","","","","","","","","","","","","","","","","","","","","","SYN064AAXX  04123 67205 32580 20910 10295 20232 40150 84200 333 59012;","","","","","","","","","",""
"67205099999","2005-09-05T05:00:00","-11.361789","40.354875","27.12","MOCIMBOA DA PRAIA, MZ","FM-12","4","","66","66","","","","9","99","CLR:00","29.98","","18.64","","000","","0","","","","","","","","","","","","","","","","","","","","","","","","","","","","","","","","","","","","","","","","","","","","","","","","","","","","","","","","","","","","","","","","","","","","","","","","","","","","","","","","","","","","","","","","","","","SYN058AAXX  05033 67205 42980 00000 10190 20188 40151 333 59009;","","","","","","","","","",""
"67205099999","2005-09-08T08:00:00","-11.361789","40.354875","27.12","MOCIMBOA DA PRAIA, MZ","FM-12","4","","69","77","","","","9","77","","30.05","","18.64","","060","","8","","","","","","","","","","","","","","","","","","","","","","","","","","","","","","","","","","","","","","","","","","","","","","","","","","","","","","","","","","","","","","","","","","","","","","","","","","","","","","","","","","","","","","","","","","","SYN092AAXX  08063 67205 32580 30607 10250 20207 40176 83200 333 20196 5///0 55100 58006 555 10000;","","","","","","","","","",""
"67205099999","2005-09-08T20:00:00","-11.361789","40.354875","27.12","MOCIMBOA DA PRAIA, MZ","FM-12","4","","72","76","","","","9","90","","30.03","","18.64","","100","","7","","","","","","","","","","","","","","","","","","","","","","","","","","","","","","","","","","","","","","","","","","","","","","","","","","","","","","","","","","","","","","","","","","","","","","","","","","","","","","","","","","","","","","","","","","","SYN070AAXX  08183 67205 32580 71006 10242 20224 40171 8225/ 333 10305 58002;","","","","","","","","","",""
"67205099999","2005-09-09T05:00:00","-11.361789","40.354875","27.12","MOCIMBOA DA PRAIA, MZ","FM-12","4","","66","68","","","","9","93","","30.03","","18.64","","220","","8","","","","","","","","","","","","","","","","","","","","","","","","","","","","","","","","","","","","","","","","","","","","","","","","","","","","","","","","","","","","","","","","","","","","","","","","","","","","","","","","","","","","","","","","","","","SYN064AAXX  09033 67205 42580 52207 10198 20187 40169 83230 333 58007;","","","","","","","","","",""
"67205099999","2005-09-10T05:00:00","-11.361789","40.354875","27.12","MOCIMBOA DA PRAIA, MZ","FM-12","4","","69","71","","","","9","94","","30.03","","18.64","","000","","0","","","","","","","","","","","","","","","","","","","","","","","","","","","","","","","","","","","","","","","","","","","","","","","","","","","","","","","","","","","","","","","","","","","","","","","","","","","","","","","","","","","","","","","","","","","SYN064AAXX  10033 67205 42580 60000 10216 20206 40169 83230 333 58000;","","","","","","","","","",""
"67205099999","2005-09-10T08:00:00","-11.361789","40.354875","27.12","MOCIMBOA DA PRAIA, MZ","FM-12","4","","68","81","","","","9","64","","30.06","","18.64","","150","","10","","","","","","","","","","","","","","","","","","","","","","","","","","","","","","","","","","","","","","","","","","","","","","","","","","","","","","","","","","","","","","","","","","","","","","","","","","","","","","","","","","","","","","","","","","","SYN092AAXX  10063 67205 32580 31509 10272 20198 40179 83200 333 20214 50620 55097 59008 555 10000;","","","","","","","","","",""
"67205099999","2005-09-10T14:00:00","-11.361789","40.354875","27.12","MOCIMBOA DA PRAIA, MZ","FM-12","4","","69","84","","","","9","60","","30.02","","18.64","","090","","10","","","","","","","","","","","","","","","","","","","","","","","","","","","","","","","","","","","","","","","","","","","","","","","","","","","","","","","","","","","","","","","","","","","","","","","","","","","","","","","","","","","","","","","","","","","SYN064AAXX  10123 67205 32580 20909 10290 20204 40165 82200 333 59012;","","","","","","","","","",""
"67205099999","2005-09-11T05:00:00","-11.361789","40.354875","27.12","MOCIMBOA DA PRAIA, MZ","FM-12","4","","67","69","","","","9","95","","30.02","","18.64","","000","","0","","","","","","","","","","","","","","","","","","","","","","","","","","","","","","","","","","","","","","","","","","","","","","","","","","","","","","","","","","","","","","","","","","","","","","","","","","","","","","","","","","","","","","","","","","","SYN064AAXX  11033 67205 42580 40000 10204 20196 40167 82230 333 59002;","","","","","","","","","",""
"67205099999","2005-09-11T14:00:00","-11.361789","40.354875","27.12","MOCIMBOA DA PRAIA, MZ","FM-12","4","","66","83","","","","9","55","","30.02","","12.43","","130","","10","","","","","","","","","","","","","","","","","","","","","","","","","","","","","","","","","","","","","","","","","","","","","","","","","","","","","","","","","","","","","","","","","","","","","","","","","","","","","","","","","","","","","","","","","","","SYN064AAXX  11123 67205 32570 31309 10286 20187 40165 83100 333 59000;","","","","","","","","","",""
"67205099999","2005-09-12T08:00:00","-11.361789","40.354875","27.12","MOCIMBOA DA PRAIA, MZ","FM-12","4","","69","78","","","","9","75","","30.06","","18.64","","100","","3","","","","","","","","","","","","","","","","","","","","","","","","","","","","","","","","","","","","","","","","","","","","","","","","","","","","","","","","","","","","","","","","","","","","","","","","","","","","","","","","","","","","","","","","","","","SYN092AAXX  12063 67205 32580 41003 10255 20207 40179 84200 333 20196 50590 55110 59002 555 10000;","","","","","","","","","",""
"67205099999","2005-09-12T14:00:00","-11.361789","40.354875","27.12","MOCIMBOA DA PRAIA, MZ","FM-12","4","","63","78","","","","9","61","CLR:00","","26.33","12.43","68","150","","21","","","","","","","","","","","","","","","","","","","","","","","","","","","","","","","","","","","","","","","","","","","","","","","","","","","","","","","","","","","","","","","","","","","","","","","","","","","","","","","","","","","","","","","","","","","SYN064AAXX  12123 67205 32970 01518 10256 20175 38916 48555 333 59004;","","","","","","","","","",""
"67205099999","2005-09-13T08:00:00","-11.361789","40.354875","27.12","MOCIMBOA DA PRAIA, MZ","FM-12","4","","69","78","","","","9","75","","30.07","","18.64","","140","","6","","","","","","","","","","","","","","","","","","","","","","","","","","","","","","","","","","","","","","","","","","","","","","","","","","","","","","","","","","","","","","","","","","","","","","","","","","","","","","","","","","","","","","","","","","","SYN092AAXX  13063 67205 32580 41405 10255 20207 40183 84200 333 20198 59540 55114 58004 555 10000;","","","","","","","","","",""
"67205099999","2005-09-13T14:00:00","-11.361789","40.354875","27.12","MOCIMBOA DA PRAIA, MZ","FM-12","4","","65","73","","","","9","77","","30.00","","18.64","","090","","10","","","","","","","","","","","","","","","","","","","","","","","","","","","","","","","","","","","","","","","","","","","","","","","","","","","","","","","","","","","","","","","","","","","","","","","","","","","","","","","","","","","","","","","","","","","SYN064AAXX  13123 67205 32580 20909 10226 20184 40159 82220 333 58015;","","","","","","","","","",""
"67205099999","2005-09-13T20:00:00","-11.361789","40.354875","27.12","MOCIMBOA DA PRAIA, MZ","FM-12","4","","70","75","","","","9","84","","30.07","","18.64","","000","","0","","","","","","","","","","","","","","","","","","","","","","","","","","","","","","","","","","","","","","","","","","","","","","","","","","","","","","","","","","","","","","","","","","","","","","","","","","","","","","","","","","","","","","","","","","","SYN070AAXX  13183 67205 32580 20000 10240 20212 40182 82200 333 10304 58003;","","","","","","","","","",""
"67205099999","2005-09-15T08:00:00","-11.361789","40.354875","27.12","MOCIMBOA DA PRAIA, MZ","FM-12","4","","65","79","","","","9","63","","29.98","","18.64","","160","","11","","","","","","","","","","","","","","","","","","","","","","","","","","","","","","","","","","","","","","","","","","","","","","","","","","","","","","","","","","","","","","","","","","","","","","","","","","","","","","","","","","","","","","","","","","","SYN092AAXX  15063 67205 32580 41610 10260 20184 40151 84200 333 20206 50640 55108 59008 555 10000;","","","","","","","","","",""
"67205099999","2005-09-15T14:00:00","-11.361789","40.354875","27.12","MOCIMBOA DA PRAIA, MZ","FM-12","4","","63","83","","","","9","51","","30.06","","18.64","","090","","23","","","","","","","","","","","","","","","","","","","","","","","","","","","","","","","","","","","","","","","","","","","","","","","","","","","","","","","","","","","","","","","","","","","","","","","","","","","","","","","","","","","","","","","","","","","SYN064AAXX  15123 67205 32580 10920 10285 20173 40179 81100 333 59007;","","","","","","","","","",""
"67205099999","2005-09-17T05:00:00","-11.361789","40.354875","27.12","MOCIMBOA DA PRAIA, MZ","FM-12","4","","67","69","","","","9","94","","30.03","","18.64","","190","","5","","","","","","","","","","","","","","","","","","","","","","","","","","","","","","","","","","","","","","","","","","","","","","","","","","","","","","","","","","","","","","","","","","","","","","","","","","","","","","","","","","","","","","","","","","","SYN064AAXX  17033 67205 42580 51904 10205 20195 40170 85200 333 58008;","","","","","","","","","",""
"67205099999","2005-09-17T14:00:00","-11.361789","40.354875","27.12","MOCIMBOA DA PRAIA, MZ","FM-12","4","","69","84","","","","9","61","","30.03","","18.64","","100","","10","","","","","","","","","","","","","","","","","","","","","","","","","","","","","","","","","","","","","","","","","","","","","","","","","","","","","","","","","","","","","","","","","","","","","","","","","","","","","","","","","","","","","","","","","","","SYN064AAXX  17123 67205 32580 11009 10290 20206 40169 81200 333 58016;","","","","","","","","","",""
"67205099999","2005-09-18T08:00:00","-11.361789","40.354875","27.12","MOCIMBOA DA PRAIA, MZ","FM-12","4","","68","80","","","","9","67","","30.15","","18.64","","130","","5","","","","","","","","","","","","","","","","","","","","","","","","","","","","","","","","","","","","","","","","","","","","","","","","","","","","","","","","","","","","","","","","","","","","","","","","","","","","","","","","","","","","","","","","","","","SYN092AAXX  18063 67205 32580 31304 10267 20200 40209 83200 333 20210 50740 55104 58010 555 10000;","","","","","","","","","",""
"67205099999","2005-09-19T05:00:00","-11.361789","40.354875","27.12","MOCIMBOA DA PRAIA, MZ","FM-12","4","","61","70","","","","9","75","CLR:00","30.08","","18.64","","000","","0","","","","","","","","","","","","","","","","","","","","","","","","","","","","","","","","","","","","","","","","","","","","","","","","","","","","","","","","","","","","","","","","","","","","","","","","","","","","","","","","","","","","","","","","","","","SYN058AAXX  19033 67205 42980 00000 10209 20162 40185 333 58001;","","","","","","","","","",""
"67205099999","2005-09-19T08:00:00","-11.361789","40.354875","27.12","MOCIMBOA DA PRAIA, MZ","FM-12","4","","70","78","","","","9","75","","30.16","","18.64","","000","","0","","","","","","","","","","","","","","","","","","","","","","","","","","","","","","","","","","","","","","","","","","","","","","","","","","","","","","","","","","","","","","","","","","","","","","","","","","","","","","","","","","","","","","","","","","","SYN092AAXX  19063 67205 32580 80000 10257 20209 40214 84100 333 20205 50670 55108 58009 555 10000;","","","","","","","","","",""
"67205099999","2005-09-20T05:00:00","-11.361789","40.354875","27.12","MOCIMBOA DA PRAIA, MZ","FM-12","4","","69","71","","","","9","93","CLR:00","30.03","","18.64","","000","","0","","","","","","","","","","","","","","","","","","","","","","","","","","","","","","","","","","","","","","","","","","","","","","","","","","","","","","","","","","","","","","","","","","","","","","","","","","","","","","","","","","","","","","","","","","","SYN058AAXX  20033 67205 42980 00000 10218 20206 40171 333 59015;","","","","","","","","","",""
"67205099999","2005-09-20T08:00:00","-11.361789","40.354875","27.12","MOCIMBOA DA PRAIA, MZ","FM-12","4","","68","80","","","","9","68","","30.06","","18.64","","150","","5","","","","","","","","","","","","","","","","","","","","","","","","","","","","","","","","","","","","","","","","","","","","","","","","","","","","","","","","","","","","","","","","","","","","","","","","","","","","","","","","","","","","","","","","","","","SYN092AAXX  20063 67205 32580 31504 10265 20202 40180 83200 333 20215 50440 55104 59034 555 10000;","","","","","","","","","",""
"67205099999","2005-09-20T14:00:00","-11.361789","40.354875","27.12","MOCIMBOA DA PRAIA, MZ","FM-12","4","","69","77","","","","9","76","","29.96","","18.64","","000","","0","","","","","","","","","","","","","","","","","","","","","","","","","","","","","","","","","","","","","","","","","","","","","","","","","","","","","","","","","","","","","","","","","","","","","","","","","","","","","","","","","","","","","","","","","","","SYN064AAXX  20123 67205 32580 40000 10250 20204 40144 84303 333 59038;","","","","","","","","","",""
"67205099999","2005-09-21T05:00:00","-11.361789","40.354875","27.12","MOCIMBOA DA PRAIA, MZ","FM-12","4","","69","72","","","","9","91","","30.00","","18.64","","000","","0","","","","","","","","","","","","","","","","","","","","","","","","","","","","","","","","","","","","","","","","","","","","","","","","","","","","","","","","","","","","","","","","","","","","","","","","","","","","","","","","","","","","","","","","","","","SYN064AAXX  21034 67205 42980 30000 10220 20205 40159 83030 333 59012;","","","","","","","","","",""
"67205099999","2005-09-21T08:00:00","-11.361789","40.354875","27.12","MOCIMBOA DA PRAIA, MZ","FM-12","4","","71","80","","","","9","75","","30.05","","18.64","","000","","0","","","","","","","","","","","","","","","","","","","","","","","","","","","","","","","","","","","","","","","","","","","","","","","","","","","","","","","","","","","","","","","","","","","","","","","","","","","","","","","","","","","","","","","","","","","SYN092AAXX  21064 67205 32580 40000 10265 20216 40177 84200 333 20208 50400 55106 59003 555 10000;","","","","","","","","","",""
"67205099999","2005-09-21T14:00:00","-11.361789","40.354875","27.12","MOCIMBOA DA PRAIA, MZ","FM-12","4","","68","84","","","","9","58","","29.97","","18.64","","090","","9","","","","","","","","","","","","","","","","","","","","","","","","","","","","","","","","","","","","","","","","","","","","","","","","","","","","","","","","","","","","","","","","","","","","","","","","","","","","","","","","","","","","","","","","","","","SYN064AAXX  21124 67205 32580 20908 10290 20200 40148 82200 333 58004;","","","","","","","","","",""
"67205099999","2005-09-21T20:00:00","-11.361789","40.354875","27.12","MOCIMBOA DA PRAIA, MZ","FM-12","4","","70","75","","","","9","85","","30.05","","18.64","","090","","10","","","","","","","","","","","","","","","","","","","","","","","","","","","","","","","","","","","","","","","","","","","","","","","","","","","","","","","","","","","","","","","","","","","","","","","","","","","","","","","","","","","","","","","","","","","SYN070AAXX  21184 67205 32580 20909 10239 20212 40175 82200 333 10306 59004;","","","","","","","","","",""
"67205099999","2005-09-22T05:00:00","-11.361789","40.354875","27.12","MOCIMBOA DA PRAIA, MZ","FM-12","4","","71","72","","","","9","96","","30.03","","18.64","","000","","0","","","","","","","","","","","","","","","","","","","","","","","","","","","","","","","","","","","","","","","","","","","","","","","","","","","","","","","","","","","","","","","","","","","","","","","","","","","","","","","","","","","","","","","","","","","SYN064AAXX  22034 67205 42580 60000 10224 20217 40168 86200 333 58009;","","","","","","","","","",""
"67205099999","2005-09-22T08:00:00","-11.361789","40.354875","27.12","MOCIMBOA DA PRAIA, MZ","FM-12","4","","72","77","","","","9","85","","30.09","","18.64","","000","","0","","","","","","","","","","","","","","","","","","","","","","","","","","","","","","","","","","","","","","","","","","","","","","","","","","","","","","","","","","","","","","","","","","","","","","","","","","","","","","","","","","","","","","","","","","","SYN092AAXX  22063 67205 32580 70000 10250 20222 40189 872// 333 20216 50530 55104 58012 555 10000;","","","","","","","","","",""
"67205099999","2005-09-22T14:00:00","-11.361789","40.354875","27.12","MOCIMBOA DA PRAIA, MZ","FM-12","4","","69","85","","","","9","59","","30.06","","18.64","","060","","9","","","","","","","","","","","","","","","","","","","","","","","","","","","","","","","","","","","","","","","","","","","","","","","","","","","","","","","","","","","","","","","","","","","","","","","","","","","","","","","","","","","","","","","","","","","SYN064AAXX  22124 67205 32580 20608 10294 20205 40179 82200 333 58030;","","","","","","","","","",""
"67205099999","2005-09-23T05:00:00","-11.361789","40.354875","27.12","MOCIMBOA DA PRAIA, MZ","FM-12","4","","71","73","","","","9","95","","30.06","","18.64","","000","","0","","","","","","","","","","","","","","","","","","","","","","","","","","","","","","","","","","","","","","","","","","","","","","","","","","","","","","","","","","","","","","","","","","","","","","","","","","","","","","","","","","","","","","","","","","","SYN064AAXX  23034 67205 42580 50000 10226 20217 40181 85200 333 58013;","","","","","","","","","",""
"67205099999","2005-09-23T08:00:00","-11.361789","40.354875","27.12","MOCIMBOA DA PRAIA, MZ","FM-12","4","","73","78","","","","9","85","","30.12","","18.64","","360","","3","","","","","","","","","","","","","","","","","","","","","","","","","","","","","","","","","","","","","","","","","","","","","","","","","","","","","","","","","","","","","","","","","","","","","","","","","","","","","","","","","","","","","","","","","","","SYN092AAXX  23064 67205 32580 43603 10253 20226 40199 84200 333 20220 50470 55106 58010 555 10000;","","","","","","","","","",""
"67205099999","2005-09-24T05:00:00","-11.361789","40.354875","27.12","MOCIMBOA DA PRAIA, MZ","FM-12","4","","71","73","","","","9","92","CLR:00","30.03","","18.64","","000","","0","","","","","","","","","","","","","","","","","","","","","","","","","","","","","","","","","","","","","","","","","","","","","","","","","","","","","","","","","","","","","","","","","","","","","","","","","","","","","","","","","","","","","","","","","","","SYN058AAXX  24033 67205 42980 00000 10230 20217 40169 333 59012;","","","","","","","","","",""
"67205099999","2005-09-24T08:00:00","-11.361789","40.354875","27.12","MOCIMBOA DA PRAIA, MZ","FM-12","4","","72","78","","","","9","81","","30.06","","18.64","","020","","5","","","","","","","","","","","","","","","","","","","","","","","","","","","","","","","","","","","","","","","","","","","","","","","","","","","","","","","","","","","","","","","","","","","","","","","","","","","","","","","","","","","","","","","","","","","SYN092AAXX  24063 67205 32580 50204 10255 20220 40181 85200 333 20222 50500 55104 59018 555 10000;","","","","","","","","","",""
"67205099999","2005-09-24T14:00:00","-11.361789","40.354875","27.12","MOCIMBOA DA PRAIA, MZ","FM-12","4","","71","86","","","","9","61","","30.00","","18.64","","230","","11","","","","","","","","","","","","","","","","","","","","","","","","","","","","","","","","","","","","","","","","","","","","","","","","","","","","","","","","","","","","","","","","","","","","","","","","","","","","","","","","","","","","","","","","","","","SYN064AAXX  24123 67205 32580 32310 10300 20217 40159 83200 333 59020;","","","","","","","","","",""
"67205099999","2005-09-24T20:00:00","-11.361789","40.354875","27.12","MOCIMBOA DA PRAIA, MZ","FM-12","4","","72","76","","","","9","89","","30.06","","18.64","","000","","0","","","","","","","","","","","","","","","","","","","","","","","","","","","","","","","","","","","","","","","","","","","","","","","","","","","","","","","","","","","","","","","","","","","","","","","","","","","","","","","","","","","","","","","","","","","SYN070AAXX  24183 67205 32580 30000 10244 20224 40179 83200 333 10307 59018;","","","","","","","","","",""
"67205099999","2005-09-25T05:00:00","-11.361789","40.354875","27.12","MOCIMBOA DA PRAIA, MZ","FM-12","4","","53","73","","","","9","50","","30.00","","18.64","","000","","0","","","","","","","","","","","","","","","","","","","","","","","","","","","","","","","","","","","","","","","","","","","","","","","","","","","","","","","","","","","","","","","","","","","","","","","","","","","","","","","","","","","","","","","","","","","SYN064AAXX  25033 67205 42580 60000 10226 20116 40160 86200 333 59009;","","","","","","","","","",""
"67205099999","2005-09-25T08:00:00","-11.361789","40.354875","27.12","MOCIMBOA DA PRAIA, MZ","FM-12","4","","73","80","","","","9","77","","30.03","","18.64","","000","","0","","","","","","","","","","","","","","","","","","","","","","","","","","","","","","","","","","","","","","","","","","","","","","","","","","","","","","","","","","","","","","","","","","","","","","","","","","","","","","","","","","","","","","","","","","","SYN092AAXX  25063 67205 32580 50000 10269 20226 40169 85200 333 20217 50490 55110 59019 555 10000;","","","","","","","","","",""
"67205099999","2005-09-25T14:00:00","-11.361789","40.354875","27.12","MOCIMBOA DA PRAIA, MZ","FM-12","4","","73","84","","","","9","70","","29.98","","18.64","","020","","9","","","","","","","","","","","","","","","","","","","","","","","","","","","","","","","","","","","","","","","","","","","","","","","","","","","","","","","","","","","","","","","","","","","","","","","","","","","","","","","","","","","","","","","","","","","SYN064AAXX  25123 67205 32580 30208 10288 20227 40154 83200 333 59004;","","","","","","","","","",""
"67205099999","2005-09-26T08:00:00","-11.361789","40.354875","27.12","MOCIMBOA DA PRAIA, MZ","FM-12","4","","71","80","","","","9","75","","30.04","","18.64","","020","","3","","","","","","","","","","","","","","","","","","","","","","","","","","","","","","","","","","","","","","","","","","","","","","","","","","","","","","","","","","","","","","","","","","","","","","","","","","","","","","","","","","","","","","","","","","","SYN092AAXX  26063 67205 32580 30203 10265 20216 40174 83200 333 20205 50410 55067 58005 555 10000;","","","","","","","","","",""
"67205099999","2005-09-27T05:00:00","-11.361789","40.354875","27.12","MOCIMBOA DA PRAIA, MZ","FM-12","4","","67","71","","","","9","88","","30.00","","18.64","","000","","0","","","","","","","","","","","","","","","","","","","","","","","","","","","","","","","","","","","","","","","","","","","","","","","","","","","","","","","","","","","","","","","","","","","","","","","","","","","","","","","","","","","","","","","","","","","SYN064AAXX  27033 67205 42580 20000 10214 20194 40159 82200 333 59009;","","","","","","","","","",""
"67205099999","2005-09-29T05:00:00","-11.361789","40.354875","27.12","MOCIMBOA DA PRAIA, MZ","FM-12","4","","67","70","","","","9","91","","30.01","","18.64","","000","","0","","","","","","","","","","","","","","","","","","","","","","","","","","","","","","","","","","","","","","","","","","","","","","","","","","","","","","","","","","","","","","","","","","","","","","","","","","","","","","","","","","","","","","","","","","","SYN064AAXX  29034 67205 42580 50000 10210 20195 40161 85200 333 59008;","","","","","","","","","",""
"67205099999","2005-09-29T08:00:00","-11.361789","40.354875","27.12","MOCIMBOA DA PRAIA, MZ","FM-12","4","","71","80","","","","9","75","","30.06","","18.64","","000","","0","","","","","","","","","","","","","","","","","","","","","","","","","","","","","","","","","","","","","","","","","","","","","","","","","","","","","","","","","","","","","","","","","","","","","","","","","","","","","","","","","","","","","","","","","","","SYN092AAXX  29064 67205 32580 60000 10265 20216 40180 83230 333 20206 50490 55103 58001 555 10000;","","","","","","","","","",""
"67205099999","2005-09-29T20:00:00","-11.361789","40.354875","27.12","MOCIMBOA DA PRAIA, MZ","FM-12","4","","71","76","","","","9","86","CLR:00","30.06","","18.64","","040","","7","","","","","","","","","","","","","","","","","","","","","","","","","","","","","","","","","","","","","","","","","","","","","","","","","","","","","","","","","","","","","","","","","","","","","","","","","","","","","","","","","","","","","","","","","","","SYN064AAXX  29184 67205 32980 00406 10244 20219 40180 333 10303 58001;","","","","","","","","","",""
"67205099999","2005-09-30T05:00:00","-11.361789","40.354875","27.12","MOCIMBOA DA PRAIA, MZ","FM-12","4","","71","72","","","","9","95","","30.03","","18.64","","000","","0","","","","","","","","","","","","","","","","","","","","","","","","","","","","","","","","","","","","","","","","","","","","","","","","","","","","","","","","","","","","","","","","","","","","","","","","","","","","","","","","","","","","","","","","","","","SYN064AAXX  30034 67205 42580 10000 10224 20216 40169 81100 333 58008;","","","","","","","","","",""
"67205099999","2005-09-30T08:00:00","-11.361789","40.354875","27.12","MOCIMBOA DA PRAIA, MZ","FM-12","4","","73","77","","","","9","86","","30.07","","18.64","","000","","0","","","","","","","","","","","","","","","","","","","","","","","","","","","","","","","","","","","","","","","","","","","","","","","","","","","","","","","","","","","","","","","","","","","","","","","","","","","","","","","","","","","","","","","","","","","SYN092AAXX  30063 67205 32580 50000 10252 20226 40184 85200 333 20219 50460 55103 58004 555 10000;","","","","","","","","","",""
"67205099999","2005-10-01T05:00:00","-11.361789","40.354875","27.12","MOCIMBOA DA PRAIA, MZ","FM-12","4","","73","74","","","","9","95","","30.03","","18.64","","000","","0","","","","","","","","","","","","","","","","","","","","","","","","","","","","","","","","","","","","","","","","","","","","","","","","","","","","","","","","","","","","","","","","","","","","","","","","","","","","","","","","","","","","","","","","","","","SYN064AAXX  01033 67205 42580 40000 10236 20227 40171 84200 333 58002;","","","","","","","","","",""
"67205099999","2005-10-01T08:00:00","-11.361789","40.354875","27.12","MOCIMBOA DA PRAIA, MZ","FM-12","4","","73","81","","","","9","77","","30.09","","18.64","","000","","0","","","","","","","","","","","","","","","","","","","","","","","","","","","","","","","","","","","","","","","","","","","","","","","","","","","","","","","","","","","","","","","","","","","","","","","","","","","","","","","","","","","","","","","","","","","SYN092AAXX  01064 67205 32580 50000 10270 20226 40189 85200 333 20230 50550 55113 58005 555 10000;","","","","","","","","","",""
"67205099999","2005-10-02T05:00:00","-11.361789","40.354875","27.12","MOCIMBOA DA PRAIA, MZ","FM-12","4","","69","72","","","","9","92","","30.05","","18.64","","000","","0","","","","","","","","","","","","","","","","","","","","","","","","","","","","","","","","","","","","","","","","","","","","","","","","","","","","","","","","","","","","","","","","","","","","","","","","","","","","","","","","","","","","","","","","","","","SYN064AAXX  02033 67205 42580 20000 10220 20206 40175 82200 333 58004;","","","","","","","","","",""
"67205099999","2005-10-03T14:00:00","-11.361789","40.354875","27.12","MOCIMBOA DA PRAIA, MZ","FM-12","4","","72","83","","","","9","68","","30.00","","18.64","","030","","9","","","","","","","","","","","","","","","","","","","","","","","","","","","","","","","","","","","","","","","","","","","","","","","","","","","","","","","","","","","","","","","","","","","","","","","","","","","","","","","","","","","","","","","","","","","SYN064AAXX  03124 67205 32580 10308 10285 20220 40158 81200 333 58013;","","","","","","","","","",""
"67205099999","2005-10-04T08:00:00","-11.361789","40.354875","27.12","MOCIMBOA DA PRAIA, MZ","FM-12","4","","71","80","","","","9","75","","30.05","","18.64","","000","","0","","","","","","","","","","","","","","","","","","","","","","","","","","","","","","","","","","","","","","","","","","","","","","","","","","","","","","","","","","","","","","","","","","","","","","","","","","","","","","","","","","","","","","","","","","","SYN092AAXX  04064 67205 32580 50000 10265 20216 40175 85200 333 20215 50430 55112 59001 555 10000;","","","","","","","","","",""
"67205099999","2005-10-04T14:00:00","-11.361789","40.354875","27.12","MOCIMBOA DA PRAIA, MZ","FM-12","4","","71","85","","","","9","63","","29.94","","18.64","","040","","15","","","","","","","","","","","","","","","","","","","","","","","","","","","","","","","","","","","","","","","","","","","","","","","","","","","","","","","","","","","","","","","","","","","","","","","","","","","","","","","","","","","","","","","","","","","SYN064AAXX  04124 67205 32580 20413 10296 20218 40139 82200 333 59010;","","","","","","","","","",""
"67205099999","2005-10-05T08:00:00","-11.361789","40.354875","27.12","MOCIMBOA DA PRAIA, MZ","FM-12","4","","72","81","","","","9","72","","30.03","","18.64","","000","","0","","","","","","","","","","","","","","","","","","","","","","","","","","","","","","","","","","","","","","","","","","","","","","","","","","","","","","","","","","","","","","","","","","","","","","","","","","","","","","","","","","","","","","","","","","","SYN092AAXX  05064 67205 32580 60000 10275 20220 40169 86200 333 20220 50420 55113 59006 555 10000;","","","","","","","","","",""
"67205099999","2005-10-05T14:00:00","-11.361789","40.354875","27.12","MOCIMBOA DA PRAIA, MZ","FM-12","4","","71","86","","","","9","61","","29.96","","18.64","","030","","8","","","","","","","","","","","","","","","","","","","","","","","","","","","","","","","","","","","","","","","","","","","","","","","","","","","","","","","","","","","","","","","","","","","","","","","","","","","","","","","","","","","","","","","","","","","SYN064AAXX  05124 67205 32580 20307 10299 20216 40147 82200 333 58008;","","","","","","","","","",""
"67205099999","2005-10-06T05:00:00","-11.361789","40.354875","27.12","MOCIMBOA DA PRAIA, MZ","FM-12","4","","71","74","","","","9","91","","30.00","","18.64","","000","","0","","","","","","","","","","","","","","","","","","","","","","","","","","","","","","","","","","","","","","","","","","","","","","","","","","","","","","","","","","","","","","","","","","","","","","","","","","","","","","","","","","","","","","","","","","","SYN064AAXX  06034 67205 42580 50000 10232 20217 40158 85200 333 58008;","","","","","","","","","",""
"67205099999","2005-10-06T08:00:00","-11.361789","40.354875","27.12","MOCIMBOA DA PRAIA, MZ","FM-12","4","","73","81","","","","9","77","","30.06","","18.64","","030","","8","","","","","","","","","","","","","","","","","","","","","","","","","","","","","","","","","","","","","","","","","","","","","","","","","","","","","","","","","","","","","","","","","","","","","","","","","","","","","","","","","","","","","","","","","","","SYN092AAXX  06064 67205 32580 70307 10270 20226 40179 81200 333 20230 50400 50/// 58010 555 10000;","","","","","","","","","",""
"67205099999","2005-10-06T14:00:00","-11.361789","40.354875","27.12","MOCIMBOA DA PRAIA, MZ","FM-12","4","","71","86","","","","9","61","","30.00","","18.64","","030","","13","","","","","","","","","","","","","","","","","","","","","","","","","","","","","","","","","","","","","","","","","","","","","","","","","","","","","","","","","","","","","","","","","","","","","","","","","","","","","","","","","","","","","","","","","","","SYN064AAXX  06124 67205 32580 20311 10298 20216 40159 82200 333 58010;","","","","","","","","","",""
"67205099999","2005-10-07T08:00:00","-11.361789","40.354875","27.12","MOCIMBOA DA PRAIA, MZ","FM-12","4","","63","66","","","","9","91","","","26.34","12.43","64","140","","18","","","","","","","","","","","","","","","","","","","","","","","","","","","","","","","","","","","","","","","","","","","","","","","","","","","","","","","","","","","","","","","","","","","","","","","","","","","","","","","","","","","","","","","","","","","SYN098AAXX  07064 67205 32470 81416 10190 20174 38921 48591 886// 333 20185 51460 55080 58039 555 10000;","","","","","","","","","",""
"67205099999","2005-10-07T14:00:00","-11.361789","40.354875","27.12","MOCIMBOA DA PRAIA, MZ","FM-12","4","","68","86","","","","9","55","","30.03","","18.64","","090","","15","","","","","","","","","","","","","","","","","","","","","","","","","","","","","","","","","","","","","","","","","","","","","","","","","","","","","","","","","","","","","","","","","","","","","","","","","","","","","","","","","","","","","","","","","","","SYN064AAXX  07124 67205 32580 20913 10300 20199 40168 82200 333 59009;","","","","","","","","","",""
"67205099999","2005-10-08T08:00:00","-11.361789","40.354875","27.12","MOCIMBOA DA PRAIA, MZ","FM-12","4","","73","81","","","","9","75","","30.06","","18.64","","030","","3","","","","","","","","","","","","","","","","","","","","","","","","","","","","","","","","","","","","","","","","","","","","","","","","","","","","","","","","","","","","","","","","","","","","","","","","","","","","","","","","","","","","","","","","","","","SYN092AAXX  08064 67205 32580 30303 10275 20226 40180 83200 333 20208 50480 55111 59001 555 10000;","","","","","","","","","",""
"67205099999","2005-10-08T14:00:00","-11.361789","40.354875","27.12","MOCIMBOA DA PRAIA, MZ","FM-12","4","","73","87","","","","9","63","","30.00","","18.64","","050","","8","","","","","","","","","","","","","","","","","","","","","","","","","","","","","","","","","","","","","","","","","","","","","","","","","","","","","","","","","","","","","","","","","","","","","","","","","","","","","","","","","","","","","","","","","","","SYN064AAXX  08124 67205 32580 20507 10306 20228 40159 82200 333 59009;","","","","","","","","","",""
"67205099999","2005-10-10T08:00:00","-11.361789","40.354875","27.12","MOCIMBOA DA PRAIA, MZ","FM-12","4","","73","81","","","","9","75","","30.01","","18.64","","000","","0","","","","","","","","","","","","","","","","","","","","","","","","","","","","","","","","","","","","","","","","","","","","","","","","","","","","","","","","","","","","","","","","","","","","","","","","","","","","","","","","","","","","","","","","","","","SYN092AAXX  10064 67205 32580 40000 10275 20226 40162 84200 333 20230 50740 55112 59007 555 10000;","","","","","","","","","",""
"67205099999","2005-10-11T08:00:00","-11.361789","40.354875","27.12","MOCIMBOA DA PRAIA, MZ","FM-12","4","","72","82","","","","9","73","","29.98","","18.64","","020","","3","","","","","","","","","","","","","","","","","","","","","","","","","","","","","","","","","","","","","","","","","","","","","","","","","","","","","","","","","","","","","","","","","","","","","","","","","","","","","","","","","","","","","","","","","","","SYN092AAXX  11064 67205 32580 40203 10279 20225 40152 84200 333 20225 50560 55105 58010 555 10000;","","","","","","","","","",""
"67205099999","2005-10-12T08:00:00","-11.361789","40.354875","27.12","MOCIMBOA DA PRAIA, MZ","FM-12","4","","73","80","","","","9","80","","29.98","","18.64","","000","","0","","","","","","","","","","","","","","","","","","","","","","","","","","","","","","","","","","","","","","","","","","","","","","","","","","","","","","","","","","","","","","","","","","","","","","","","","","","","","","","","","","","","","","","","","","","SYN092AAXX  12064 67205 32580 50000 10265 20228 40153 85200 333 20221 50450 55109 59019 555 10000;","","","","","","","","","",""
"67205099999","2005-10-13T08:00:00","-11.361789","40.354875","27.12","MOCIMBOA DA PRAIA, MZ","FM-12","4","","73","81","","","","9","77","","30.03","","18.64","","030","","6","","","","","","","","","","","","","","","","","","","","","","","","","","","","","","","","","","","","","","","","","","","","","","","","","","","","","","","","","","","","","","","","","","","","","","","","","","","","","","","","","","","","","","","","","","","SYN092AAXX  13063 67205 32580 30305 10270 20226 40169 83200 333 20205 50700 55107 58016 555 10000;","","","","","","","","","",""
"67205099999","2005-10-14T08:00:00","-11.361789","40.354875","27.12","MOCIMBOA DA PRAIA, MZ","FM-12","4","","73","81","","","","9","75","","30.03","","18.64","","360","","3","","","","","","","","","","","","","","","","","","","","","","","","","","","","","","","","","","","","","","","","","","","","","","","","","","","","","","","","","","","","","","","","","","","","","","","","","","","","","","","","","","","","","","","","","","","SYN092AAXX  14064 67205 32580 43603 10275 20226 40170 84200 333 20200 50490 55108 58001 555 10000;","","","","","","","","","",""
"67205099999","2005-10-20T05:00:00","-11.361789","40.354875","27.12","MOCIMBOA DA PRAIA, MZ","FM-12","4","","67","72","","","","9","85","","29.97","","18.64","","000","","0","","","","","","","","","","","","","","","","","","","","","","","","","","","","","","","","","","","","","","","","","","","","","","","","","","","","","","","","","","","","","","","","","","","","","","","","","","","","","","","","","","","","","","","","","","","SYN064AAXX  20034 67205 42580 20000 10222 20196 40149 82200 333 59018;","","","","","","","","","",""
"67205099999","2005-10-20T08:00:00","-11.361789","40.354875","27.12","MOCIMBOA DA PRAIA, MZ","FM-12","4","","73","77","","","","9","88","","30.00","","18.64","","340","","3","","","","","","","","","","","","","","","","","","","","","","","","","","","","","","","","","","","","","","","","","","","","","","","","","","","","","","","","","","","","","","","","","","","","","","","","","","","","","","","","","","","","","","","","","","","SYN092AAXX  20064 67205 32580 43403 10250 20228 40159 84200 333 20210 50490 55072 59020 555 10000;","","","","","","","","","",""
"67205099999","2005-10-20T14:00:00","-11.361789","40.354875","27.12","MOCIMBOA DA PRAIA, MZ","FM-12","4","","72","84","","","","9","66","","29.90","","18.64","","020","","11","","","","","","","","","","","","","","","","","","","","","","","","","","","","","","","","","","","","","","","","","","","","","","","","","","","","","","","","","","","","","","","","","","","","","","","","","","","","","","","","","","","","","","","","","","","SYN064AAXX  20124 67205 32980 20210 10290 20220 40124 82030 333 59030;","","","","","","","","","",""
"67205099999","2005-10-20T20:00:00","-11.361789","40.354875","27.12","MOCIMBOA DA PRAIA, MZ","FM-12","4","","72","77","","","","9","86","CLR:00","30.00","","18.64","","030","","8","","","","","","","","","","","","","","","","","","","","","","","","","","","","","","","","","","","","","","","","","","","","","","","","","","","","","","","","","","","","","","","","","","","","","","","","","","","","","","","","","","","","","","","","","","","SYN064AAXX  20184 67205 32980 00307 10248 20222 40159 333 10296 59018;","","","","","","","","","",""
"67205099999","2005-10-21T05:00:00","-11.361789","40.354875","27.12","MOCIMBOA DA PRAIA, MZ","FM-12","4","","69","72","","","","9","92","","29.91","","18.64","","000","","0","","","","","","","","","","","","","","","","","","","","","","","","","","","","","","","","","","","","","","","","","","","","","","","","","","","","","","","","","","","","","","","","","","","","","","","","","","","","","","","","","","","","","","","","","","","SYN064AAXX  21034 67205 42580 50000 10220 20206 40129 82205 333 59020;","","","","","","","","","",""
"67205099999","2005-10-21T08:00:00","-11.361789","40.354875","27.12","MOCIMBOA DA PRAIA, MZ","FM-12","4","","72","80","","","","9","76","","29.97","","18.64","","360","","5","","","","","","","","","","","","","","","","","","","","","","","","","","","","","","","","","","","","","","","","","","","","","","","","","","","","","","","","","","","","","","","","","","","","","","","","","","","","","","","","","","","","","","","","","","","SYN092AAXX  21064 67205 32580 63604 10265 20220 40149 84205 333 20212 50410 55108 59010 555 10000;","","","","","","","","","",""
"67205099999","2005-10-21T14:00:00","-11.361789","40.354875","27.12","MOCIMBOA DA PRAIA, MZ","FM-12","4","","73","88","","","","9","62","","29.88","","18.64","","020","","19","","","","","","","","","","","","","","","","","","","","","","","","","","","","","","","","","","","","","","","","","","","","","","","","","","","","","","","","","","","","","","","","","","","","","","","","","","","","","","","","","","","","","","","","","","","SYN064AAXX  21124 67205 32580 30217 10309 20228 40119 83205 333 59005;","","","","","","","","","",""
"67205099999","2005-10-22T05:00:00","-11.361789","40.354875","27.12","MOCIMBOA DA PRAIA, MZ","FM-12","4","","69","71","","","","9","93","","29.91","","18.64","","000","","0","","","","","","","","","","","","","","","","","","","","","","","","","","","","","","","","","","","","","","","","","","","","","","","","","","","","","","","","","","","","","","","","","","","","","","","","","","","","","","","","","","","","","","","","","","","SYN064AAXX  22034 67205 42580 40000 10218 20206 40130 82201 333 58001;","","","","","","","","","",""
"67205099999","2005-10-22T14:00:00","-11.361789","40.354875","27.12","MOCIMBOA DA PRAIA, MZ","FM-12","4","","73","87","","","","9","63","","29.92","","18.64","","360","","7","","","","","","","","","","","","","","","","","","","","","","","","","","","","","","","","","","","","","","","","","","","","","","","","","","","","","","","","","","","","","","","","","","","","","","","","","","","","","","","","","","","","","","","","","","","SYN064AAXX  22124 67205 32580 23606 10305 20228 40131 82100 333 58002;","","","","","","","","","",""
"67205099999","2005-10-23T14:00:00","-11.361789","40.354875","27.12","MOCIMBOA DA PRAIA, MZ","FM-12","4","","73","88","","","","9","62","","29.94","","18.64","","030","","9","","","","","","","","","","","","","","","","","","","","","","","","","","","","","","","","","","","","","","","","","","","","","","","","","","","","","","","","","","","","","","","","","","","","","","","","","","","","","","","","","","","","","","","","","","","SYN064AAXX  23124 67205 32580 50308 10309 20227 40139 82201 333 58009;","","","","","","","","","",""
"67205099999","2005-10-24T08:00:00","-11.361789","40.354875","27.12","MOCIMBOA DA PRAIA, MZ","FM-12","4","","73","81","","","","9","79","","30.04","","18.64","","000","","0","","","","","","","","","","","","","","","","","","","","","","","","","","","","","","","","","","","","","","","","","","","","","","","","","","","","","","","","","","","","","","","","","","","","","","","","","","","","","","","","","","","","","","","","","","","SYN092AAXX  24064 67205 32580 40000 10270 20230 40174 84200 333 20230 50470 55106 58004 555 10000;","","","","","","","","","",""
"67205099999","2005-10-24T14:00:00","-11.361789","40.354875","27.12","MOCIMBOA DA PRAIA, MZ","FM-12","4","","73","87","","","","9","64","","29.94","","18.64","","340","","11","","","","","","","","","","","","","","","","","","","","","","","","","","","","","","","","","","","","","","","","","","","","","","","","","","","","","","","","","","","","","","","","","","","","","","","","","","","","","","","","","","","","","","","","","","","SYN064AAXX  24124 67205 32580 23410 10305 20229 40139 82200 333 58000;","","","","","","","","","",""
"67205099999","2005-10-24T20:00:00","-11.361789","40.354875","27.12","MOCIMBOA DA PRAIA, MZ","FM-12","4","","74","78","","","","9","87","","30.04","","18.64","","020","","7","","","","","","","","","","","","","","","","","","","","","","","","","","","","","","","","","","","","","","","","","","","","","","","","","","","","","","","","","","","","","","","","","","","","","","","","","","","","","","","","","","","","","","","","","","","SYN070AAXX  24184 67205 32580 10206 10258 20234 40172 81100 333 10314 58003;","","","","","","","","","",""
"67205099999","2005-10-25T05:00:00","-11.361789","40.354875","27.12","MOCIMBOA DA PRAIA, MZ","FM-12","4","","73","74","","","","9","94","","30.16","","18.64","","000","","0","","","","","","","","","","","","","","","","","","","","","","","","","","","","","","","","","","","","","","","","","","","","","","","","","","","","","","","","","","","","","","","","","","","","","","","","","","","","","","","","","","","","","","","","","","","SYN064AAXX  25034 67205 42580 60000 10236 20226 40214 86200 333 59011;","","","","","","","","","",""
"67205099999","2005-10-26T05:00:00","-11.361789","40.354875","27.12","MOCIMBOA DA PRAIA, MZ","FM-12","4","","71","74","","","","9","91","","29.97","","18.64","","000","","0","","","","","","","","","","","","","","","","","","","","","","","","","","","","","","","","","","","","","","","","","","","","","","","","","","","","","","","","","","","","","","","","","","","","","","","","","","","","","","","","","","","","","","","","","","","SYN064AAXX  26034 67205 42580 70000 10232 20217 40149 8327/ 333 58006;","","","","","","","","","",""
"67205099999","2005-10-28T05:00:00","-11.361789","40.354875","27.12","MOCIMBOA DA PRAIA, MZ","FM-12","4","","71","74","","","","9","91","","29.99","","18.64","","010","","7","","","","","","","","","","","","","","","","","","","","","","","","","","","","","","","","","","","","","","","","","","","","","","","","","","","","","","","","","","","","","","","","","","","","","","","","","","","","","","","","","","","","","","","","","","","SYN064AAXX  28034 67205 42580 20106 10233 20217 40155 82200 333 59001;","","","","","","","","","",""
"67205099999","2005-10-28T08:00:00","-11.361789","40.354875","27.12","MOCIMBOA DA PRAIA, MZ","FM-12","4","","72","82","","","","9","72","","30.03","","18.64","","030","","10","","","","","","","","","","","","","","","","","","","","","","","","","","","","","","","","","","","","","","","","","","","","","","","","","","","","","","","","","","","","","","","","","","","","","","","","","","","","","","","","","","","","","","","","","","","SYN104AAXX  28064 67205 12580 20309 10280 20225 40170 60044 82100 333 20232 50400 55109 59006 555 00041 10000;","","","","","","","","","",""
"67205099999","2005-10-28T14:00:00","-11.361789","40.354875","27.12","MOCIMBOA DA PRAIA, MZ","FM-12","4","","73","86","","","","9","66","","29.98","","18.64","","090","","6","","","","","","","","","","","","","","","","","","","","","","","","","","","","","","","","","","","","","","","","","","","","","","","","","","","","","","","","","","","","","","","","","","","","","","","","","","","","","","","","","","","","","","","","","","","SYN064AAXX  28124 67205 32580 20905 10301 20230 40154 82100 333 58005;","","","","","","","","","",""
"67205099999","2005-10-29T08:00:00","-11.361789","40.354875","27.12","MOCIMBOA DA PRAIA, MZ","FM-12","4","","75","81","","","","9","81","","30.08","","18.64","","030","","9","","","","","","","","","","","","","","","","","","","","","","","","","","","","","","","","","","","","","","","","","","","","","","","","","","","","","","","","","","","","","","","","","","","","","","","","","","","","","","","","","","","","","","","","","","","SYN092AAXX  29064 67205 32580 60308 10275 20240 40185 86200 333 20228 50400 55111 58015 555 10041;","","","","","","","","","",""
"67205099999","2005-10-30T05:00:00","-11.361789","40.354875","27.12","MOCIMBOA DA PRAIA, MZ","FM-12","4","","73","75","","","","9","92","","30.03","","18.64","","000","","0","","","","","","","","","","","","","","","","","","","","","","","","","","","","","","","","","","","","","","","","","","","","","","","","","","","","","","","","","","","","","","","","","","","","","","","","","","","","","","","","","","","","","","","","","","","SYN064AAXX  30034 67205 42580 30000 10240 20226 40169 83200 333 58001;","","","","","","","","","",""
"67205099999","2005-10-31T08:00:00","-11.361789","40.354875","27.12","MOCIMBOA DA PRAIA, MZ","FM-12","4","","75","82","","","","9","79","","30.09","","18.64","","030","","6","","","","","","","","","","","","","","","","","","","","","","","","","","","","","","","","","","","","","","","","","","","","","","","","","","","","","","","","","","","","","","","","","","","","","","","","","","","","","","","","","","","","","","","","","","","SYN092AAXX  31064 67205 32580 50305 10278 20239 40190 85200 333 20240 50690 55108 58001 555 10000;","","","","","","","","","",""
"67205099999","2005-11-01T05:00:00","-11.361789","40.354875","27.12","MOCIMBOA DA PRAIA, MZ","FM-12","4","","74","77","","","","9","93","","30.04","","18.64","","000","","0","","","","","","","","","","","","","","","","","","","","","","","","","","","","","","","","","","","","","","","","","","","","","","","","","","","","","","","","","","","","","","","","","","","","","","","","","","","","","","","","","","","","","","","","","","","SYN064AAXX  01034 67205 42580 30000 10248 20236 40172 83200 333 58003;","","","","","","","","","",""
"67205099999","2005-11-01T08:00:00","-11.361789","40.354875","27.12","MOCIMBOA DA PRAIA, MZ","FM-12","4","","73","82","","","","9","73","","30.09","","18.64","","000","","0","","","","","","","","","","","","","","","","","","","","","","","","","","","","","","","","","","","","","","","","","","","","","","","","","","","","","","","","","","","","","","","","","","","","","","","","","","","","","","","","","","","","","","","","","","","SYN092AAXX  01064 67205 32580 40000 10280 20226 40188 84200 333 20244 50710 55102 59002 555 10000;","","","","","","","","","",""
"67205099999","2005-11-01T20:00:00","-11.361789","40.354875","27.12","MOCIMBOA DA PRAIA, MZ","FM-12","4","","76","80","","","","9","88","","30.09","","18.64","","230","","3","","","","","","","","","","","","","","","","","","","","","","","","","","","","","","","","","","","","","","","","","","","","","","","","","","","","","","","","","","","","","","","","","","","","","","","","","","","","","","","","","","","","","","","","","","","SYN064AAXX  01184 67205 32580 32303 10266 20244 40190 83200 333 58001;","","","","","","","","","",""
"67205099999","2005-11-02T05:00:00","-11.361789","40.354875","27.12","MOCIMBOA DA PRAIA, MZ","FM-12","4","","73","75","","","","9","92","","30.03","","18.64","","000","","0","","","","","","","","","","","","","","","","","","","","","","","","","","","","","","","","","","","","","","","","","","","","","","","","","","","","","","","","","","","","","","","","","","","","","","","","","","","","","","","","","","","","","","","","","","","SYN064AAXX  02034 67205 42580 40000 10240 20226 40169 84200 333 59003;","","","","","","","","","",""
"67205099999","2005-11-04T14:00:00","-11.361789","40.354875","27.12","MOCIMBOA DA PRAIA, MZ","FM-12","4","","73","87","","","","9","63","","29.94","","18.64","","010","","13","","","","","","","","","","","","","","","","","","","","","","","","","","","","","","","","","","","","","","","","","","","","","","","","","","","","","","","","","","","","","","","","","","","","","","","","","","","","","","","","","","","","","","","","","","","SYN064AAXX  04124 67205 32580 50111 10306 20228 40139 83230 333 59005;","","","","","","","","","",""
"67205099999","2005-11-06T08:00:00","-11.361789","40.354875","27.12","MOCIMBOA DA PRAIA, MZ","FM-12","4","","72","82","","","","9","72","","30.01","","18.64","","090","","7","","","","","","","","","","","","","","","","","","","","","","","","","","","","","","","","","","","","","","","","","","","","","","","","","","","","","","","","","","","","","","","","","","","","","","","","","","","","","","","","","","","","","","","","","","","SYN092AAXX  06064 67205 32580 20906 10280 20224 40164 82200 333 20228 5///0 55109 58007 555 10030;","","","","","","","","","",""
"67205099999","2005-11-07T08:00:00","-11.361789","40.354875","27.12","MOCIMBOA DA PRAIA, MZ","FM-12","4","","72","82","","","","9","72","","30.00","","18.64","","020","","11","","","","","","","","","","","","","","","","","","","","","","","","","","","","","","","","","","","","","","","","","","","","","","","","","","","","","","","","","","","","","","","","","","","","","","","","","","","","","","","","","","","","","","","","","","","SYN092AAXX  07063 67205 32580 30210 10280 20225 40160 83200 333 20226 5///0 55111 59004 555 10000;","","","","","","","","","",""
"67205099999","2005-11-07T11:00:00","-11.361789","40.354875","27.12","MOCIMBOA DA PRAIA, MZ","FM-12","4","","72","84","","","","9","67","","29.98","","15.53","","030","","17","","","","","","","","","","","","","","","","","","","","","","","","","","","","","","","","","","","","","","","","","","","","","","","","","","","","","","","","","","","","","","","","","","","","","","","","","","","","","","","","","","","","","","","","","","","SYN064AAXX  07093 67205 42575 30315 10288 20220 40151 83200 333 59011;","","","","","","","","","",""
"67205099999","2005-11-08T14:00:00","-11.361789","40.354875","27.12","MOCIMBOA DA PRAIA, MZ","FM-12","4","","73","88","","","","9","61","","29.91","","18.64","","030","","8","","","","","","","","","","","","","","","","","","","","","","","","","","","","","","","","","","","","","","","","","","","","","","","","","","","","","","","","","","","","","","","","","","","","","","","","","","","","","","","","","","","","","","","","","","","SYN064AAXX  08124 67205 32580 10307 10310 20227 40129 81100 333 59007;","","","","","","","","","",""
"67205099999","2005-11-09T05:00:00","-11.361789","40.354875","27.12","MOCIMBOA DA PRAIA, MZ","FM-12","4","","71","72","","","","9","95","","29.96","","18.64","","000","","0","","","","","","","","","","","","","","","","","","","","","","","","","","","","","","","","","","","","","","","","","","","","","","","","","","","","","","","","","","","","","","","","","","","","","","","","","","","","","","","","","","","","","","","","","","","SYN064AAXX  09034 67205 42580 20000 10225 20217 40145 82200 333 58005;","","","","","","","","","",""
"67205099999","2005-11-09T08:00:00","-11.361789","40.354875","27.12","MOCIMBOA DA PRAIA, MZ","FM-12","4","","74","83","","","","9","76","","30.02","","18.64","","030","","7","","","","","","","","","","","","","","","","","","","","","","","","","","","","","","","","","","","","","","","","","","","","","","","","","","","","","","","","","","","","","","","","","","","","","","","","","","","","","","","","","","","","","","","","","","","SYN092AAXX  09064 67205 32580 30306 10281 20234 40165 83200 333 20223 5///0 55116 58014 555 10000;","","","","","","","","","",""
"67205099999","2005-11-09T14:00:00","-11.361789","40.354875","27.12","MOCIMBOA DA PRAIA, MZ","FM-12","4","","71","87","","","","9","58","","29.97","","18.64","","090","","9","","","","","","","","","","","","","","","","","","","","","","","","","","","","","","","","","","","","","","","","","","","","","","","","","","","","","","","","","","","","","","","","","","","","","","","","","","","","","","","","","","","","","","","","","","","SYN064AAXX  09124 67205 32580 10908 10306 20215 40148 81200 333 58019;","","","","","","","","","",""
"67205099999","2005-11-10T05:00:00","-11.361789","40.354875","27.12","MOCIMBOA DA PRAIA, MZ","FM-12","4","","71","73","","","","9","94","","30.05","","18.64","","000","","0","","","","","","","","","","","","","","","","","","","","","","","","","","","","","","","","","","","","","","","","","","","","","","","","","","","","","","","","","","","","","","","","","","","","","","","","","","","","","","","","","","","","","","","","","","","SYN064AAXX  10034 67205 42580 30000 10228 20217 40175 83200 333 58030;","","","","","","","","","",""
"67205099999","2005-11-11T05:00:00","-11.361789","40.354875","27.12","MOCIMBOA DA PRAIA, MZ","FM-12","4","","73","75","","","","9","92","","30.03","","18.64","","000","","0","","","","","","","","","","","","","","","","","","","","","","","","","","","","","","","","","","","","","","","","","","","","","","","","","","","","","","","","","","","","","","","","","","","","","","","","","","","","","","","","","","","","","","","","","","","SYN064AAXX  11034 67205 42580 20000 10239 20226 40171 82200 333 59004;","","","","","","","","","",""
"67205099999","2005-11-11T14:00:00","-11.361789","40.354875","27.12","MOCIMBOA DA PRAIA, MZ","FM-12","4","","75","88","","","","9","65","","29.91","","18.64","","090","","7","","","","","","","","","","","","","","","","","","","","","","","","","","","","","","","","","","","","","","","","","","","","","","","","","","","","","","","","","","","","","","","","","","","","","","","","","","","","","","","","","","","","","","","","","","","SYN064AAXX  11124 67205 32980 10906 10313 20240 40128 81100 333 59021;","","","","","","","","","",""
"67205099999","2005-11-12T05:00:00","-11.361789","40.354875","27.12","MOCIMBOA DA PRAIA, MZ","FM-12","4","","75","76","","","","9","96","","30.01","","18.64","","000","","0","","","","","","","","","","","","","","","","","","","","","","","","","","","","","","","","","","","","","","","","","","","","","","","","","","","","","","","","","","","","","","","","","","","","","","","","","","","","","","","","","","","","","","","","","","","SYN064AAXX  12034 67205 42580 40000 10243 20237 40162 84200 333 59009;","","","","","","","","","",""
"67205099999","2005-11-12T14:00:00","-11.361789","40.354875","27.12","MOCIMBOA DA PRAIA, MZ","FM-12","4","","78","90","","","","9","70","CLR:00","29.85","","18.64","","050","","14","","","","","","","","","","","","","","","","","","","","","","","","","","","","","","","","","","","","","","","","","","","","","","","","","","","","","","","","","","","","","","","","","","","","","","","","","","","","","","","","","","","","","","","","","","","SYN058AAXX  12124 67205 32980 00512 10320 20258 40110 333 59018;","","","","","","","","","",""
"67205099999","2005-11-13T05:00:00","-11.361789","40.354875","27.12","MOCIMBOA DA PRAIA, MZ","FM-12","4","","74","78","","","","9","90","","29.97","","18.64","","000","","0","","","","","","","","","","","","","","","","","","","","","","","","","","","","","","","","","","","","","","","","","","","","","","","","","","","","","","","","","","","","","","","","","","","","","","","","","","","","","","","","","","","","","","","","","","","SYN064AAXX  13033 67205 42580 80000 10253 20236 40149 882// 333 59013;","","","","","","","","","",""
"67205099999","2005-11-13T08:00:00","-11.361789","40.354875","27.12","MOCIMBOA DA PRAIA, MZ","FM-12","4","","73","81","","","","9","78","","30.03","","18.64","","360","","8","","","","","","","","","","","","","","","","","","","","","","","","","","","","","","","","","","","","","","","","","","","","","","","","","","","","","","","","","","","","","","","","","","","","","","","","","","","","","","","","","","","","","","","","","","","SYN092AAXX  13064 67205 32580 83607 10270 20228 40171 882// 333 20250 5///0 55090 59013 555 10000;","","","","","","","","","",""
"67205099999","2005-11-14T14:00:00","-11.361789","40.354875","27.12","MOCIMBOA DA PRAIA, MZ","FM-12","4","","71","88","","","","9","57","CLR:00","29.88","","18.64","","300","","13","","","","","","","","","","","","","","","","","","","","","","","","","","","","","","","","","","","","","","","","","","","","","","","","","","","","","","","","","","","","","","","","","","","","","","","","","","","","","","","","","","","","","","","","","","","SYN058AAXX  14124 67205 32980 03011 10310 20214 40119 333 59010;","","","","","","","","","",""
"67205099999","2005-11-15T05:00:00","-11.361789","40.354875","27.12","MOCIMBOA DA PRAIA, MZ","FM-12","4","","73","75","","","","9","92","","29.91","","18.64","","000","","0","","","","","","","","","","","","","","","","","","","","","","","","","","","","","","","","","","","","","","","","","","","","","","","","","","","","","","","","","","","","","","","","","","","","","","","","","","","","","","","","","","","","","","","","","","","SYN064AAXX  15034 67205 42580 30000 10240 20227 40129 83200 333 59001;","","","","","","","","","",""
"67205099999","2005-11-15T08:00:00","-11.361789","40.354875","27.12","MOCIMBOA DA PRAIA, MZ","FM-12","4","","75","82","","","","9","78","","29.94","","18.64","","360","","5","","","","","","","","","","","","","","","","","","","","","","","","","","","","","","","","","","","","","","","","","","","","","","","","","","","","","","","","","","","","","","","","","","","","","","","","","","","","","","","","","","","","","","","","","","","SYN092AAXX  15064 67205 32580 43604 10279 20238 40139 84200 333 20239 5//// 55117 59010 555 10000;","","","","","","","","","",""
"67205099999","2005-11-15T14:00:00","-11.361789","40.354875","27.12","MOCIMBOA DA PRAIA, MZ","FM-12","4","","73","88","","","","9","62","","29.83","","18.64","","360","","17","","","","","","","","","","","","","","","","","","","","","","","","","","","","","","","","","","","","","","","","","","","","","","","","","","","","","","","","","","","","","","","","","","","","","","","","","","","","","","","","","","","","","","","","","","","SYN064AAXX  15124 67205 32580 23615 10309 20227 40100 82200 333 59019;","","","","","","","","","",""
"67205099999","2005-11-16T14:00:00","-11.361789","40.354875","27.12","MOCIMBOA DA PRAIA, MZ","FM-12","4","","75","88","","","","9","67","","29.82","","18.64","","360","","18","","","","","","","","","","","","","","","","","","","","","","","","","","","","","","","","","","","","","","","","","","","","","","","","","","","","","","","","","","","","","","","","","","","","","","","","","","","","","","","","","","","","","","","","","","","SYN064AAXX  16124 67205 32580 13616 10309 20240 40099 81100 333 59001;","","","","","","","","","",""
"67205099999","2005-11-17T05:00:00","-11.361789","40.354875","27.12","MOCIMBOA DA PRAIA, MZ","FM-12","4","","73","75","","","","9","92","","29.91","","18.64","","000","","0","","","","","","","","","","","","","","","","","","","","","","","","","","","","","","","","","","","","","","","","","","","","","","","","","","","","","","","","","","","","","","","","","","","","","","","","","","","","","","","","","","","","","","","","","","","SYN064AAXX  17034 67205 42580 20000 10240 20226 40129 82200 333 58003;","","","","","","","","","",""
"67205099999","2005-11-17T08:00:00","-11.361789","40.354875","27.12","MOCIMBOA DA PRAIA, MZ","FM-12","4","","75","82","","","","9","78","","29.96","","18.64","","010","","7","","","","","","","","","","","","","","","","","","","","","","","","","","","","","","","","","","","","","","","","","","","","","","","","","","","","","","","","","","","","","","","","","","","","","","","","","","","","","","","","","","","","","","","","","","","SYN092AAXX  17064 67205 32580 30106 10280 20239 40146 83200 333 20238 5///0 55117 58016 555 10000;","","","","","","","","","",""
"67205099999","2005-11-18T14:00:00","-11.361789","40.354875","27.12","MOCIMBOA DA PRAIA, MZ","FM-12","4","","75","89","","","","9","64","","29.95","","18.64","","020","","7","","","","","","","","","","","","","","","","","","","","","","","","","","","","","","","","","","","","","","","","","","","","","","","","","","","","","","","","","","","","","","","","","","","","","","","","","","","","","","","","","","","","","","","","","","","SYN064AAXX  18124 67205 32580 20206 10315 20240 40141 82201 333 58027;","","","","","","","","","",""
"67205099999","2005-11-19T08:00:00","-11.361789","40.354875","27.12","MOCIMBOA DA PRAIA, MZ","FM-12","4","","77","83","","","","9","81","","30.01","","18.64","","060","","7","","","","","","","","","","","","","","","","","","","","","","","","","","","","","","","","","","","","","","","","","","","","","","","","","","","","","","","","","","","","","","","","","","","","","","","","","","","","","","","","","","","","","","","","","","","SYN092AAXX  19064 67205 32580 40606 10285 20249 40164 84200 333 20230 5///0 55117 58005 555 10000;","","","","","","","","","",""
"67205099999","2005-11-20T05:00:00","-11.361789","40.354875","27.12","MOCIMBOA DA PRAIA, MZ","FM-12","4","","72","75","","","","9","91","","29.97","","18.64","","000","","0","","","","","","","","","","","","","","","","","","","","","","","","","","","","","","","","","","","","","","","","","","","","","","","","","","","","","","","","","","","","","","","","","","","","","","","","","","","","","","","","","","","","","","","","","","","SYN064AAXX  20034 67205 42580 60000 10240 20224 40149 86200 333 58000;","","","","","","","","","",""
